,Earthquake Name,Start time record,Magnitude [Mw],Hypocenter latitude,Hypocenter longitude,Event type,Depth [km],Station name,Station latitude,Station longitude,Distance of rupture [km],Vs30 [m/s],Azimut [o],PGA (from 3 components) [g]
615,20140406_4Mw_20.17S_70.37W_37KM,2014-04-06 16:53:56.000000,4.0,-20.17,-70.37,interface,37.0,T10A,-19.9955,-69.7671,75.64424530543216,336,0,0.0689176804534
616,20140406_4Mw_20.17S_70.37W_37KM,2014-04-06 16:53:46.000000,4.0,-20.17,-70.37,interface,37.0,T03A,-20.2303,-70.1459,44.285502092176685,613,0,0.170303917259
617,20140406_4Mw_20.17S_70.37W_37KM,2014-04-06 16:53:46.000000,4.0,-20.17,-70.37,interface,37.0,T05A,-20.2098,-70.1502,43.78768693088622,1020,0,0.116799066894
618,20140406_5Mw_20.41S_70.98W_45KM,2014-04-06 14:05:50.000000,5.0,-20.41,-70.98,intraslab,45.0,T10A,-19.9955,-69.7671,142.15209121618642,336,0,0.0596979176016
619,20140406_5Mw_20.41S_70.98W_45KM,2014-04-06 14:05:37.000000,5.0,-20.41,-70.98,intraslab,45.0,T03A,-20.2303,-70.1459,100.0406575595661,613,0,0.0538463724638
620,20140406_5Mw_20.41S_70.98W_45KM,2014-04-06 14:05:37.000000,5.0,-20.41,-70.98,intraslab,45.0,T04A,-20.2391,-70.1333,101.03119180639943,1305,0,0.191613240555
621,20140406_5Mw_20.41S_70.98W_45KM,2014-04-06 14:05:46.000000,5.0,-20.41,-70.98,intraslab,45.0,T07A,-20.2563,-69.786,133.64742196201948,326,0,0.0931267058036
622,20140407_4.3Mw_20.04S_69.29W_101KM,2014-04-07 03:24:35.000000,4.3,-20.04,-69.29,intraslab,101.0,T13A,-20.4963,-69.3375,113.02039808677753,378,0,0.0793146930137
623,20140407_4.3Mw_20.04S_69.29W_101KM,2014-04-07 03:24:35.000000,4.3,-20.04,-69.29,intraslab,101.0,T10A,-19.9955,-69.7671,112.7693998675268,336,0,0.0985323668654
624,20140407_4.3Mw_20.04S_69.29W_101KM,2014-04-07 03:24:35.000000,4.3,-20.04,-69.29,intraslab,101.0,T07A,-20.2563,-69.786,116.02532220794528,326,0,0.0661862970419
625,20140407_4.3Mw_20.04S_69.29W_101KM,2014-04-07 03:24:24.000000,4.3,-20.04,-69.29,intraslab,101.0,T12A,-20.0706844,-69.2172089,101.34640898851212,732,0,0.22160932019
626,20140407_4.3Mw_20.04S_69.29W_101KM,2014-04-07 03:24:40.000000,4.3,-20.04,-69.29,intraslab,101.0,T11A,-19.3123779,-69.4272919,130.00803036996942,346,0,0.102021794676
627,20140407_4.7Mw_20.14S_70.37W_29KM,2014-04-07 17:45:54.000000,4.7,-20.14,-70.37,interface,29.0,T10A,-19.9955,-69.7671,71.25415522720749,336,0,0.133655707123
628,20140407_4.7Mw_20.14S_70.37W_29KM,2014-04-07 17:45:41.000000,4.7,-20.14,-70.37,interface,29.0,T03A,-20.2303,-70.1459,38.580593252469384,613,0,0.221916547378
629,20140407_4.7Mw_20.14S_70.37W_29KM,2014-04-07 17:46:14.000000,4.7,-20.14,-70.37,interface,29.0,T11A,-19.3123779,-69.4272919,137.89141584521755,346,0,0.0725493688146
630,20140407_4.7Mw_20.14S_70.37W_29KM,2014-04-07 17:45:41.000000,4.7,-20.14,-70.37,interface,29.0,T02A,-20.2525,-70.1181,41.09067031663863,269,0,0.161300909255
631,20140407_4.7Mw_20.14S_70.37W_29KM,2014-04-07 17:45:41.000000,4.7,-20.14,-70.37,interface,29.0,T01A,-20.2729,-70.1223,41.58801486045053,339,0,0.156092852216
632,20140407_4.7Mw_20.14S_70.37W_29KM,2014-04-07 17:45:40.000000,4.7,-20.14,-70.37,interface,29.0,T05A,-20.2098,-70.1502,37.81411277880537,1020,0,0.15030197705
633,20140407_4.7Mw_20.14S_70.37W_29KM,2014-04-07 17:45:53.000000,4.7,-20.14,-70.37,interface,29.0,T07A,-20.2563,-69.786,68.7854717160631,326,0,0.0695573418664
634,20140407_4.7Mw_20.64S_70.87W_36KM,2014-04-07 06:23:52.000000,4.7,-20.64,-70.87,interface,36.0,T01A,-20.2729,-70.1223,95.06986218985958,339,0,0.0688142946962
635,20140407_5Mw_20.14S_70.92W_20KM,2014-04-07 13:47:02.000000,5.0,-20.14,-70.92,interface,20.0,T08A,-20.2702,-70.0941,89.77356151284876,987,0,0.0639328228079
636,20140407_5Mw_20.14S_70.92W_20KM,2014-04-07 13:47:01.000000,5.0,-20.14,-70.92,interface,20.0,T03A,-20.2303,-70.1459,83.93068920926991,613,0,0.0562328867015
637,20140407_5Mw_20.14S_70.92W_20KM,2014-04-07 13:47:09.000000,5.0,-20.14,-70.92,interface,20.0,T10A,-19.9955,-69.7671,123.30268470089536,336,0,0.0895739950941
638,20140407_5Mw_20.14S_70.92W_20KM,2014-04-07 13:47:09.000000,5.0,-20.14,-70.92,interface,20.0,T07A,-20.2563,-69.786,120.88016466227268,326,0,0.0877436867386
639,20140407_5Mw_20.14S_70.9W_38KM,2014-04-07 14:03:11.000000,5.0,-20.14,-70.9,interface,38.0,T08A,-20.2702,-70.0941,93.52423403425782,987,0,0.0713595650366
640,20140407_5Mw_20.14S_70.9W_38KM,2014-04-07 14:03:20.000000,5.0,-20.14,-70.9,interface,38.0,T10A,-19.9955,-69.7671,125.4882602942449,336,0,0.0665842791369
641,20140407_5Mw_20.14S_70.9W_38KM,2014-04-07 14:03:19.000000,5.0,-20.14,-70.9,interface,38.0,T07A,-20.2563,-69.786,123.145836257873,326,0,0.0667124794834
642,20140407_5Mw_20.14S_70.9W_38KM,2014-04-07 14:03:09.000000,5.0,-20.14,-70.9,interface,38.0,T01A,-20.2729,-70.1223,90.94993840825677,339,0,0.254347967793
643,20140407_5Mw_20.14S_70.9W_38KM,2014-04-07 14:03:34.000000,5.0,-20.14,-70.9,interface,38.0,T13A,-20.4963,-69.3375,172.16801003928833,378,0,0.0517798717776
644,20140407_6.1Mw_20.13S_70.91W_35KM,2014-04-07 13:42:55.000000,6.1,-20.13,-70.91,interface,35.0,T10A,-19.9955,-69.7671,118.58943267254155,336,0,0.161849839111
645,20140407_6.1Mw_20.13S_70.91W_35KM,2014-04-07 13:42:44.000000,6.1,-20.13,-70.91,interface,35.0,T03A,-20.2303,-70.1459,81.31897877021261,613,0,0.221520454259
646,20140407_6.1Mw_20.13S_70.91W_35KM,2014-04-07 13:42:46.000000,6.1,-20.13,-70.91,interface,35.0,T08A,-20.2702,-70.0941,86.59261580816418,987,0,0.102156261157
647,20140407_6.1Mw_20.13S_70.91W_35KM,2014-04-07 13:42:56.000000,6.1,-20.13,-70.91,interface,35.0,T11A,-19.3123779,-69.4272919,178.05534059341713,346,0,0.141170440524
648,20140407_6.1Mw_20.13S_70.91W_35KM,2014-04-07 13:42:44.000000,6.1,-20.13,-70.91,interface,35.0,T05A,-20.2098,-70.1502,80.73734627677382,1020,0,0.128300405349
649,20140407_6.1Mw_20.13S_70.91W_35KM,2014-04-07 13:42:45.000000,6.1,-20.13,-70.91,interface,35.0,T04A,-20.2391,-70.1333,82.56772086208912,1305,0,0.0680648776128
650,20140407_6.1Mw_20.13S_70.91W_35KM,2014-04-07 13:42:54.000000,6.1,-20.13,-70.91,interface,35.0,T07A,-20.2563,-69.786,115.79760165957534,326,0,0.145698372817
651,20140407_6.1Mw_20.13S_70.91W_35KM,2014-04-07 13:43:09.000000,6.1,-20.13,-70.91,interface,35.0,T13A,-20.4963,-69.3375,164.38233958213715,378,0,0.137787187646
652,20140408_4.4Mw_20.58S_70.73W_35KM,2014-04-08 07:54:46.000000,4.4,-20.58,-70.73,interface,35.0,T02A,-20.2525,-70.1181,81.38484664944396,269,0,0.0893215929348
653,20140408_4.4Mw_20.58S_70.73W_35KM,2014-04-08 07:54:47.000000,4.4,-20.58,-70.73,interface,35.0,T01A,-20.2729,-70.1223,80.03969371904178,339,0,0.051855012002
654,20140408_4.6Mw_20.51S_70.65W_30KM,2014-04-08 05:40:07.000000,4.6,-20.51,-70.65,interface,30.0,T01A,-20.2729,-70.1223,68.01600509539433,339,0,0.0852957841561
655,20140408_4.6Mw_20.51S_70.65W_30KM,2014-04-08 05:40:22.000000,4.6,-20.51,-70.65,interface,30.0,T10A,-19.9955,-69.7671,112.52353726641013,336,0,0.0991740445361
656,20140408_4.6Mw_20.51S_70.65W_30KM,2014-04-08 05:40:07.000000,4.6,-20.51,-70.65,interface,30.0,T02A,-20.2525,-70.1181,69.28346667251155,269,0,0.15175810055
657,20140408_4.6Mw_20.51S_70.65W_30KM,2014-04-08 05:40:19.000000,4.6,-20.51,-70.65,interface,30.0,T07A,-20.2563,-69.786,99.12482928553624,326,0,0.152423729986
658,20140408_4.8Mw_20.54S_70.7W_26KM,2014-04-08 05:43:18.000000,4.8,-20.54,-70.7,interface,26.0,T02A,-20.2525,-70.1181,73.37068821078748,269,0,0.0939575713788
659,20140408_4.8Mw_20.54S_70.7W_26KM,2014-04-08 05:43:17.000000,4.8,-20.54,-70.7,interface,26.0,T01A,-20.2729,-70.1223,72.03722664889516,339,0,0.0641027073866
660,20140408_4Mw_20.36S_69.89W_51KM,2014-04-08 01:52:25.000000,4.0,-20.36,-69.89,interface,51.0,T01A,-20.2729,-70.1223,57.278473095127055,339,0,0.124912969563
661,20140408_4Mw_20.36S_69.89W_51KM,2014-04-08 01:52:28.000000,4.0,-20.36,-69.89,interface,51.0,T10A,-19.9955,-69.7671,66.32571809531966,336,0,0.103671048197
662,20140408_4Mw_20.36S_69.89W_51KM,2014-04-08 01:52:26.000000,4.0,-20.36,-69.89,interface,51.0,T02A,-20.2525,-70.1181,57.54146660765404,269,0,0.127219343222
663,20140408_4Mw_20.36S_69.89W_51KM,2014-04-08 01:52:24.000000,4.0,-20.36,-69.89,interface,51.0,T07A,-20.2563,-69.786,53.399873551253414,326,0,0.145929352731
664,20140408_5.1Mw_19.88S_70.86W_39KM,2014-04-08 05:19:57.000000,5.1,-19.88,-70.86,interface,39.0,T10A,-19.9955,-69.7671,121.55637952138576,336,0,0.0765789224828
665,20140408_5.1Mw_19.88S_70.86W_39KM,2014-04-08 05:19:49.000000,5.1,-19.88,-70.86,interface,39.0,T03A,-20.2303,-70.1459,92.74253239980906,613,0,0.0650641371848
666,20140408_5.1Mw_19.88S_70.86W_39KM,2014-04-08 05:19:50.000000,5.1,-19.88,-70.86,interface,39.0,T02A,-20.2525,-70.1181,96.130865376485,269,0,0.076313624605
667,20140408_5.1Mw_19.88S_70.86W_39KM,2014-04-08 05:20:10.000000,5.1,-19.88,-70.86,interface,39.0,T11A,-19.3123779,-69.4272919,167.55807978571576,346,0,0.0813395682788
668,20140408_5.1Mw_19.88S_70.86W_39KM,2014-04-08 05:19:57.000000,5.1,-19.88,-70.86,interface,39.0,T07A,-20.2563,-69.786,125.99369574128325,326,0,0.0798779589743
669,20140408_5.1Mw_19.88S_70.86W_39KM,2014-04-08 05:19:49.000000,5.1,-19.88,-70.86,interface,39.0,T05A,-20.2098,-70.1502,91.5033685199451,1020,0,0.0547826102964
670,20140408_5.2Mw_20.56S_70.98W_38KM,2014-04-08 10:14:15.000000,5.2,-20.56,-70.98,intraslab,38.0,T10A,-19.9955,-69.7671,146.3298206467116,336,0,0.0653524657496
671,20140408_5.2Mw_20.56S_70.98W_38KM,2014-04-08 10:14:02.000000,5.2,-20.56,-70.98,intraslab,38.0,T03A,-20.2303,-70.1459,101.77142131553776,613,0,0.0735175849509
672,20140408_5.2Mw_20.56S_70.98W_38KM,2014-04-08 10:14:29.000000,5.2,-20.56,-70.98,intraslab,38.0,A07F,-21.628,-69.551,193.57625233033528,N/A,N/A,0.0596894031604
673,20140408_5.2Mw_20.56S_70.98W_38KM,2014-04-08 10:13:60.000000,5.2,-20.56,-70.98,intraslab,38.0,T02A,-20.2525,-70.1181,103.44887049032147,269,0,0.201073276735
674,20140408_5.2Mw_20.56S_70.98W_38KM,2014-04-08 10:14:02.000000,5.2,-20.56,-70.98,intraslab,38.0,T01A,-20.2729,-70.1223,102.33517886807577,339,0,0.140701853452
675,20140408_5.2Mw_20.56S_70.98W_38KM,2014-04-08 10:14:02.000000,5.2,-20.56,-70.98,intraslab,38.0,T06A,-20.2142,-70.1379,103.13521179203836,1263,0,0.0700145718345
676,20140408_5.2Mw_20.56S_70.98W_38KM,2014-04-08 10:14:10.000000,5.2,-20.56,-70.98,intraslab,38.0,T07A,-20.2563,-69.786,134.56452226944066,326,0,0.111989859693
677,20140408_5Mw_19.77S_70.48W_39KM,2014-04-08 01:02:29.000000,5.0,-19.77,-70.48,interface,39.0,T07A,-20.2563,-69.786,98.43362532686182,326,0,0.415910713327
678,20140408_5Mw_19.77S_70.48W_39KM,2014-04-08 01:02:27.000000,5.0,-19.77,-70.48,interface,39.0,T10A,-19.9955,-69.7671,87.845282749686,336,0,0.128428026051
679,20140408_5Mw_19.77S_70.48W_39KM,2014-04-08 01:02:22.000000,5.0,-19.77,-70.48,interface,39.0,T03A,-20.2303,-70.1459,73.04719578656947,613,0,0.240922010896
680,20140408_5Mw_19.77S_70.48W_39KM,2014-04-08 01:02:39.000000,5.0,-19.77,-70.48,interface,39.0,T11A,-19.3123779,-69.4272919,127.68576409956944,346,0,0.0647787833685
681,20140408_5Mw_19.77S_70.48W_39KM,2014-04-08 01:02:23.000000,5.0,-19.77,-70.48,interface,39.0,T02A,-20.2525,-70.1181,76.17803330724225,269,0,0.232487308919
682,20140408_5Mw_19.77S_70.48W_39KM,2014-04-08 01:02:16.000000,5.0,-19.77,-70.48,interface,39.0,T09A,-19.5957,-70.2108,51.84203021468223,1584,0,0.192244126778
683,20140408_5Mw_19.77S_70.48W_39KM,2014-04-08 01:02:24.000000,5.0,-19.77,-70.48,interface,39.0,T08A,-20.2702,-70.0941,78.84227023339469,987,0,0.157184591853
684,20140408_5Mw_19.77S_70.48W_39KM,2014-04-08 01:02:23.000000,5.0,-19.77,-70.48,interface,39.0,T04A,-20.2391,-70.1333,74.39916986761328,1305,0,0.0662929458092
685,20140408_5Mw_19.77S_70.48W_39KM,2014-04-08 01:02:22.000000,5.0,-19.77,-70.48,interface,39.0,T06A,-20.2142,-70.1379,72.23557570083128,1263,0,0.108738361581
686,20140408_5Mw_19.77S_70.48W_39KM,2014-04-08 01:02:42.000000,5.0,-19.77,-70.48,interface,39.0,T12A,-20.0706844,-69.2172089,141.83590417375154,732,0,0.0598807310354
687,20140408_5Mw_19.77S_70.48W_39KM,2014-04-08 01:02:22.000000,5.0,-19.77,-70.48,interface,39.0,T05A,-20.2098,-70.1502,71.31868769633834,1020,0,0.157047734857
688,20140409_4.3Mw_19.99S_70.11W_39KM,2014-04-09 12:19:25.000000,4.3,-19.99,-70.11,interface,39.0,T10A,-19.9955,-69.7671,53.007581012562106,336,0,0.231694589659
689,20140409_4.3Mw_19.99S_70.11W_39KM,2014-04-09 12:19:23.000000,4.3,-19.99,-70.11,interface,39.0,T03A,-20.2303,-70.1459,47.34029568716369,613,0,0.278761550227
690,20140409_4.3Mw_19.99S_70.11W_39KM,2014-04-09 12:19:24.000000,4.3,-19.99,-70.11,interface,39.0,T08A,-20.2702,-70.0941,49.846299322758796,987,0,0.359021340067
691,20140409_4.3Mw_19.99S_70.11W_39KM,2014-04-09 12:19:18.000000,4.3,-19.99,-70.11,interface,39.0,T02A,-20.2525,-70.1181,48.61054623493927,269,0,0.480001806901
692,20140409_4.3Mw_19.99S_70.11W_39KM,2014-04-09 12:19:23.000000,4.3,-19.99,-70.11,interface,39.0,T06A,-20.2142,-70.1379,46.3089365855853,1263,0,0.230361369408
693,20140409_4.3Mw_19.99S_70.11W_39KM,2014-04-09 12:19:26.000000,4.3,-19.99,-70.11,interface,39.0,T09A,-19.5957,-70.2108,59.45921754011754,1584,0,0.507008977429
694,20140409_4.3Mw_19.99S_70.11W_39KM,2014-04-09 12:19:23.000000,4.3,-19.99,-70.11,interface,39.0,T05A,-20.2098,-70.1502,46.17007792805437,1020,0,0.394920739472
695,20140409_4.3Mw_19.99S_70.11W_39KM,2014-04-09 12:19:23.000000,4.3,-19.99,-70.11,interface,39.0,T04A,-20.2391,-70.1333,47.81896963845213,1305,0,0.293156253925
696,20140409_4.3Mw_19.99S_70.11W_39KM,2014-04-09 12:19:20.000000,4.3,-19.99,-70.11,interface,39.0,T07A,-20.2563,-69.786,59.46402133126332,326,0,0.36593852875
697,20140409_4.3Mw_19.99S_70.11W_39KM,2014-04-09 12:19:24.000000,4.3,-19.99,-70.11,interface,39.0,T01A,-20.2729,-70.1223,50.04127712115475,339,0,0.553369284814
698,20140409_4.3Mw_20.4S_70.48W_32KM,2014-04-09 04:44:16.000000,4.3,-20.4,-70.48,interface,32.0,T07A,-20.2563,-69.786,80.81175213816933,326,0,0.0637429685662
699,20140409_4.5Mw_19.87S_70.88W_32KM,2014-04-09 07:52:26.000000,4.5,-19.87,-70.88,interface,32.0,T01A,-20.2729,-70.1223,96.44037624095813,339,0,0.0557035127445
700,20140409_4.6Mw_19.87S_70.94W_33KM,2014-04-09 07:48:52.000000,4.6,-19.87,-70.94,interface,33.0,T01A,-20.2729,-70.1223,101.98199652076256,339,0,0.0652156497915
701,20140409_4.9Mw_20.78S_70.81W_15KM,2014-04-09 11:05:45.000000,4.9,-20.78,-70.81,interface,15.0,T02A,-20.2525,-70.1181,94.08223374346505,269,0,0.0639013229908
702,20140409_5Mw_20.62S_70.92W_22KM,2014-04-09 11:14:21.000000,5.0,-20.62,-70.92,interface,22.0,T07A,-20.2563,-69.786,126.93204906105431,326,0,0.0567376957227
703,20140409_5Mw_20.62S_70.92W_22KM,2014-04-09 11:14:01.000000,5.0,-20.62,-70.92,interface,22.0,T01A,-20.2729,-70.1223,94.30657167501066,339,0,0.0980023040083
704,20140409_5Mw_20.62S_70.92W_22KM,2014-04-09 11:14:12.000000,5.0,-20.62,-70.92,interface,22.0,T02A,-20.2525,-70.1181,95.64723747440539,269,0,0.119559072164
705,20140410_4.3Mw_20.23S_70.91W_36KM,2014-04-10 11:48:03.000000,4.3,-20.23,-70.91,interface,36.0,T01A,-20.2729,-70.1223,89.9827843003002,339,0,0.0561891978805
706,20140410_4.3Mw_20.55S_70.97W_33KM,2014-04-10 22:10:29.000000,4.3,-20.55,-70.97,interface,33.0,T02A,-20.2525,-70.1181,100.42995859521203,269,0,0.0593443185235
707,20140410_4.3Mw_20.55S_70.97W_33KM,2014-04-10 22:10:29.000000,4.3,-20.55,-70.97,interface,33.0,T01A,-20.2729,-70.1223,99.31282055700393,339,0,0.0669168626312
708,20140410_4.7Mw_20.34S_70.87W_15KM,2014-04-10 00:10:00.000000,4.7,-20.34,-70.87,interface,15.0,T02A,-20.2525,-70.1181,80.55710717778898,269,0,0.10163486365
709,20140410_4.7Mw_20.34S_70.87W_15KM,2014-04-10 00:10:00.000000,4.7,-20.34,-70.87,interface,15.0,T01A,-20.2729,-70.1223,79.89538672584548,339,0,0.0718212888893
710,20140410_4.9Mw_19.99S_71.03W_38KM,2014-04-10 17:48:49.000000,4.9,-19.99,-71.03,intraslab,38.0,T07A,-20.2563,-69.786,138.67855251698597,326,0,0.0599315792792
711,20140410_4.9Mw_19.99S_71.03W_38KM,2014-04-10 17:48:43.000000,4.9,-19.99,-71.03,intraslab,38.0,T01A,-20.2729,-70.1223,106.95413340481508,339,0,0.053807903211
712,20140411_4.3Mw_20.28S_70.47W_29KM,2014-04-11 21:43:01.000000,4.3,-20.28,-70.47,interface,29.0,T01A,-20.2729,-70.1223,46.50971433496888,339,0,0.0872598097158
713,20140411_4.3Mw_20.28S_70.47W_29KM,2014-04-11 21:42:60.000000,4.3,-20.28,-70.47,interface,29.0,T03A,-20.2303,-70.1459,44.91671592014023,613,0,0.0725181386469
714,20140411_4.3Mw_20.28S_70.47W_29KM,2014-04-11 21:43:09.000000,4.3,-20.28,-70.47,interface,29.0,T07A,-20.2563,-69.786,77.16288263519728,326,0,0.0694359324741
715,20140411_4.3Mw_20.28S_70.47W_29KM,2014-04-11 21:43:01.000000,4.3,-20.28,-70.47,interface,29.0,T06A,-20.2142,-70.1379,45.80029076764462,1263,0,0.0628066688161
716,20140411_4.3Mw_20.28S_70.47W_29KM,2014-04-11 21:43:01.000000,4.3,-20.28,-70.47,interface,29.0,T02A,-20.2525,-70.1181,46.93504946625191,269,0,0.135218577499
717,20140411_4.4Mw_23.25S_68.92W_112KM,2014-04-11 10:48:39.000000,4.4,-23.25,-68.92,intraslab,112.0,A05F,-22.8914,-69.3207,125.74993622327395,1000,0,0.240191845971
718,20140411_4.4Mw_23.25S_68.92W_112KM,2014-04-11 10:48:42.000000,4.4,-23.25,-68.92,intraslab,112.0,A08F,-23.186,-68.006,146.1048952006745,482.66,0,0.198578307952
719,20140411_4.5Mw_20.71S_70.72W_22KM,2014-04-11 23:56:05.000000,4.5,-20.71,-70.72,interface,22.0,T02A,-20.2525,-70.1181,83.66204611498827,269,0,0.0715443050346
720,20140411_4.5Mw_20.71S_70.72W_22KM,2014-04-11 23:56:12.000000,4.5,-20.71,-70.72,interface,22.0,T07A,-20.2563,-69.786,111.82372156963325,326,0,0.0619818882189
721,20140411_4.6Mw_20.55S_70.81W_37KM,2014-04-11 08:39:12.000000,4.6,-20.55,-70.81,interface,37.0,T02A,-20.2525,-70.1181,87.60520844155631,269,0,0.073929243274
722,20140411_4.6Mw_20.55S_70.81W_37KM,2014-04-11 08:39:13.000000,4.6,-20.55,-70.81,interface,37.0,T01A,-20.2729,-70.1223,86.40508999883376,339,0,0.0646610082134
723,20140411_5.3Mw_20.08S_70.51W_39KM,2014-04-11 12:00:07.000000,5.3,-20.08,-70.51,interface,39.0,T07A,-20.2563,-69.786,87.34219608073907,326,0,0.349540557969
724,20140411_5.3Mw_20.08S_70.51W_39KM,2014-04-11 12:00:08.000000,5.3,-20.08,-70.51,interface,39.0,T06A,-20.2142,-70.1379,57.04110065138187,1263,0,0.0633269521545
725,20140411_5.3Mw_20.08S_70.51W_39KM,2014-04-11 12:00:06.000000,5.3,-20.08,-70.51,interface,39.0,T01A,-20.2729,-70.1223,60.18670034419931,339,0,0.262765608446
726,20140411_5.3Mw_20.08S_70.51W_39KM,2014-04-11 12:00:16.000000,5.3,-20.08,-70.51,interface,39.0,T10A,-19.9955,-69.7671,87.47665353813245,336,0,0.180159914463
727,20140411_5.3Mw_20.08S_70.51W_39KM,2014-04-11 12:00:08.000000,5.3,-20.08,-70.51,interface,39.0,T03A,-20.2303,-70.1459,56.96376991169217,613,0,0.151959839391
728,20140411_5.3Mw_20.08S_70.51W_39KM,2014-04-11 12:00:33.000000,5.3,-20.08,-70.51,interface,39.0,T11A,-19.3123779,-69.4272919,147.11245754160112,346,0,0.218967717287
729,20140411_5.3Mw_20.08S_70.51W_39KM,2014-04-11 12:00:06.000000,5.3,-20.08,-70.51,interface,39.0,T02A,-20.2525,-70.1181,59.689297056306046,269,0,0.225212112978
730,20140411_5.3Mw_20.08S_70.51W_39KM,2014-04-11 12:00:12.000000,5.3,-20.08,-70.51,interface,39.0,T09A,-19.5957,-70.2108,73.2995596332395,1584,0,0.114110215385
731,20140411_5.3Mw_20.08S_70.51W_39KM,2014-04-11 12:00:11.000000,5.3,-20.08,-70.51,interface,39.0,T08A,-20.2702,-70.0941,62.08357258293318,987,0,0.0769388037979
732,20140411_5.3Mw_20.08S_70.51W_39KM,2014-04-11 12:00:08.000000,5.3,-20.08,-70.51,interface,39.0,T04A,-20.2391,-70.1333,58.17344354310324,1305,0,0.102526621662
733,20140411_5.3Mw_20.08S_70.51W_39KM,2014-04-11 12:00:39.000000,5.3,-20.08,-70.51,interface,39.0,A04P,-18.8337,-69.7445,164.36012647408288,483,0,0.0640071067874
734,20140411_5.3Mw_20.08S_70.51W_39KM,2014-04-11 12:00:31.000000,5.3,-20.08,-70.51,interface,39.0,T13A,-20.4963,-69.3375,136.58162449290663,378,0,0.149868045554
735,20140411_5.3Mw_20.08S_70.51W_39KM,2014-04-11 12:00:08.000000,5.3,-20.08,-70.51,interface,39.0,T05A,-20.2098,-70.1502,56.07821857143523,1020,0,0.10317001033
736,20140411_5.3Mw_20.08S_70.51W_39KM,2014-04-11 12:00:33.000000,5.3,-20.08,-70.51,interface,39.0,T12A,-20.0706844,-69.2172089,140.75814460598153,732,0,0.0625887456919
737,20140411_5Mw_19.94S_70.93W_39KM,2014-04-11 08:55:47.000000,5.0,-19.94,-70.93,interface,39.0,T13A,-20.4963,-69.3375,181.72020224451433,378,0,0.0634354994826
