,Earthquake Name,Start time record,Magnitude [Mw],Hypocenter latitude,Hypocenter longitude,Event type,Depth [km],Station name,Station latitude,Station longitude,Distance of rupture [km],Vs30 [m/s],Azimut [o],PGA (from 3 components) [g]
738,20140411_5Mw_19.94S_70.93W_39KM,2014-04-11 08:55:32.000000,5.0,-19.94,-70.93,interface,39.0,T10A,-19.9955,-69.7671,127.96908809714093,336,0,0.107339059486
739,20140411_5Mw_19.94S_70.93W_39KM,2014-04-11 08:55:32.000000,5.0,-19.94,-70.93,interface,39.0,T07A,-20.2563,-69.786,130.6097572962815,326,0,0.177830880289
740,20140411_5Mw_19.94S_70.93W_39KM,2014-04-11 08:55:24.000000,5.0,-19.94,-70.93,interface,39.0,T01A,-20.2729,-70.1223,100.09929093262502,339,0,0.14634474994
741,20140411_5Mw_19.94S_70.93W_39KM,2014-04-11 08:55:20.000000,5.0,-19.94,-70.93,interface,39.0,T02A,-20.2525,-70.1181,99.62777058147398,269,0,0.132514487674
742,20140411_6.2Mw_20.72S_70.65W_38KM,2014-04-11 00:01:07.000000,6.2,-20.72,-70.65,interface,38.0,T10A,-19.9955,-69.7671,120.41982521171032,336,0,0.39545096439
743,20140411_6.2Mw_20.72S_70.65W_38KM,2014-04-11 00:01:08.000000,6.2,-20.72,-70.65,interface,38.0,T08A,-20.2702,-70.0941,79.38803684777147,987,0,0.172210705571
744,20140411_6.2Mw_20.72S_70.65W_38KM,2014-04-11 00:01:46.000000,6.2,-20.72,-70.65,interface,38.0,A06F,-22.344,-69.658,205.66182503593666,294.68,0,0.067618241271
745,20140411_6.2Mw_20.72S_70.65W_38KM,2014-04-11 00:00:59.000000,6.2,-20.72,-70.65,interface,38.0,T01A,-20.2729,-70.1223,77.2961075748599,339,0,0.58179943991
746,20140411_6.2Mw_20.72S_70.65W_38KM,2014-04-11 00:01:34.000000,6.2,-20.72,-70.65,interface,38.0,T12A,-20.0706844,-69.2172089,162.29030499970557,732,0,0.123727455007
747,20140411_6.2Mw_20.72S_70.65W_38KM,2014-04-11 00:01:01.000000,6.2,-20.72,-70.65,interface,38.0,T03A,-20.2303,-70.1459,78.34638928861935,613,0,0.238841386648
748,20140411_6.2Mw_20.72S_70.65W_38KM,2014-04-11 00:00:59.000000,6.2,-20.72,-70.65,interface,38.0,T02A,-20.2525,-70.1181,78.78325195562509,269,0,0.547392389634
749,20140411_6.2Mw_20.72S_70.65W_38KM,2014-04-11 00:01:43.998391,6.2,-20.72,-70.65,interface,38.0,PB02,-21.31973,-69.89603,105.48578926764202,746,0,0.288392794938
750,20140411_6.2Mw_20.72S_70.65W_38KM,2014-04-11 00:01:15.000000,6.2,-20.72,-70.65,interface,38.0,A11F,-21.4249,-70.0568,102.71250536056903,600,0,0.124901744279
751,20140411_6.2Mw_20.72S_70.65W_38KM,2014-04-11 00:01:13.000000,6.2,-20.72,-70.65,interface,38.0,A07F,-21.628,-69.551,151.99497476872773,N/A,N/A,0.29457066966
752,20140411_6.2Mw_20.72S_70.65W_38KM,2014-04-11 00:01:01.000000,6.2,-20.72,-70.65,interface,38.0,T04A,-20.2391,-70.1333,78.60047979587392,1305,0,0.114001850365
753,20140411_6.2Mw_20.72S_70.65W_38KM,2014-04-11 00:01:08.000000,6.2,-20.72,-70.65,interface,38.0,T05A,-20.2098,-70.1502,79.40984605659533,1020,0,0.173550283362
754,20140411_6.2Mw_20.72S_70.65W_38KM,2014-04-11 00:01:01.000000,6.2,-20.72,-70.65,interface,38.0,T06A,-20.2142,-70.1379,79.89194229235405,1263,0,0.239100025671
755,20140411_6.2Mw_20.72S_70.65W_38KM,2014-04-11 00:01:41.000000,6.2,-20.72,-70.65,interface,38.0,T11A,-19.3123779,-69.4272919,196.19774640252575,346,0,0.180564766374
756,20140411_6.2Mw_20.72S_70.65W_38KM,2014-04-11 00:01:06.000000,6.2,-20.72,-70.65,interface,38.0,T07A,-20.2563,-69.786,103.8441743259836,326,0,0.518240034814
757,20140411_6.2Mw_20.72S_70.65W_38KM,2014-04-11 00:01:25.000000,6.2,-20.72,-70.65,interface,38.0,T09A,-19.5957,-70.2108,129.70279729975664,1584,0,0.0749965366646
758,20140411_6.2Mw_20.72S_70.65W_38KM,2014-04-11 00:01:10.000000,6.2,-20.72,-70.65,interface,38.0,T13A,-20.4963,-69.3375,136.06596982641162,378,0,0.209294495979
759,20140413_4.5Mw_21.16S_68.62W_124KM,2014-04-13 07:43:46.000000,4.5,-21.16,-68.62,intraslab,124.0,A07F,-21.628,-69.551,165.47205322301343,N/A,N/A,0.086176699581
760,20140413_5.2Mw_20.58S_70.72W_22KM,2014-04-13 12:11:06.000000,5.2,-20.58,-70.72,interface,22.0,T10A,-19.9955,-69.7671,120.77964035554051,336,0,0.144558269118
761,20140413_5.2Mw_20.58S_70.72W_22KM,2014-04-13 12:10:44.000000,5.2,-20.58,-70.72,interface,22.0,T03A,-20.2303,-70.1459,74.6652196371549,613,0,0.11302687893
762,20140413_5.2Mw_20.58S_70.72W_22KM,2014-04-13 12:11:18.000000,5.2,-20.58,-70.72,interface,22.0,A07F,-21.628,-69.551,169.4071303404168,N/A,N/A,0.129191683074
763,20140413_5.2Mw_20.58S_70.72W_22KM,2014-04-13 12:10:44.000000,5.2,-20.58,-70.72,interface,22.0,T02A,-20.2525,-70.1181,75.83042474359348,269,0,0.298267893069
764,20140413_5.2Mw_20.58S_70.72W_22KM,2014-04-13 12:10:44.000000,5.2,-20.58,-70.72,interface,22.0,T06A,-20.2142,-70.1379,76.2655539003769,1263,0,0.0632318345707
765,20140413_5.2Mw_20.58S_70.72W_22KM,2014-04-13 12:11:27.000000,5.2,-20.58,-70.72,interface,22.0,T11A,-19.3123779,-69.4272919,196.23491897276608,346,0,0.06690891002
766,20140413_5.2Mw_20.58S_70.72W_22KM,2014-04-13 12:10:55.000000,5.2,-20.58,-70.72,interface,22.0,T13A,-20.4963,-69.3375,146.19275980914722,378,0,0.0959541415508
767,20140413_5.2Mw_20.58S_70.72W_22KM,2014-04-13 12:11:06.000000,5.2,-20.58,-70.72,interface,22.0,A11F,-21.4249,-70.0568,118.27127803287458,600,0,0.0715215872095
768,20140413_5.2Mw_20.58S_70.72W_22KM,2014-04-13 12:10:49.000000,5.2,-20.58,-70.72,interface,22.0,T07A,-20.2563,-69.786,106.17390276507632,326,0,0.150541602615
769,20140414_4.6Mw_18.56S_70.9W_43KM,2014-04-14 22:19:56.000000,4.6,-18.56,-70.9,interface,43.0,A07P,-18.4459,-70.2929,78.21107907142559,560,0,0.0764417898494
770,20140414_4.9Mw_20.73S_70.79W_25KM,2014-04-14 05:55:56.000000,4.9,-20.73,-70.79,interface,25.0,T10A,-19.9955,-69.7671,136.57844256185544,336,0,0.0603877575004
771,20140414_4.9Mw_20.73S_70.79W_25KM,2014-04-14 05:56:07.000000,4.9,-20.73,-70.79,interface,25.0,A07F,-21.628,-69.551,164.51342672306518,N/A,N/A,0.053121477348
772,20140414_4.9Mw_20.73S_70.79W_25KM,2014-04-14 05:55:53.000000,4.9,-20.73,-70.79,interface,25.0,T07A,-20.2563,-69.786,119.78334044708512,326,0,0.0874891911109
773,20140414_4.9Mw_20.73S_70.79W_25KM,2014-04-14 05:55:34.000000,4.9,-20.73,-70.79,interface,25.0,T01A,-20.2729,-70.1223,89.6666993378715,339,0,0.115436614347
774,20140414_4.9Mw_20.73S_70.79W_25KM,2014-04-14 05:55:35.000000,4.9,-20.73,-70.79,interface,25.0,T02A,-20.2525,-70.1181,91.32228814871509,269,0,0.14529779027
775,20140415_4.1Mw_20.04S_70.46W_29KM,2014-04-15 04:21:27.000000,4.1,-20.04,-70.46,interface,29.0,T10A,-19.9955,-69.7671,78.25509272033058,336,0,0.0943547503357
776,20140415_4.1Mw_20.04S_70.46W_29KM,2014-04-15 04:21:19.000000,4.1,-20.04,-70.46,interface,29.0,T03A,-20.2303,-70.1459,48.59334397789978,613,0,0.157673871553
777,20140415_4.1Mw_20.04S_70.46W_29KM,2014-04-15 04:21:21.000000,4.1,-20.04,-70.46,interface,29.0,T08A,-20.2702,-70.0941,54.345238842899555,987,0,0.098025841966
778,20140415_4.1Mw_20.04S_70.46W_29KM,2014-04-15 04:21:20.000000,4.1,-20.04,-70.46,interface,29.0,T02A,-20.2525,-70.1181,51.675229690199295,269,0,0.223191168826
779,20140415_4.1Mw_20.04S_70.46W_29KM,2014-04-15 04:21:20.000000,4.1,-20.04,-70.46,interface,29.0,T01A,-20.2729,-70.1223,52.48774000761367,339,0,0.191529083182
780,20140415_4.1Mw_20.04S_70.46W_29KM,2014-04-15 04:21:19.000000,4.1,-20.04,-70.46,interface,29.0,T04A,-20.2391,-70.1333,49.95250430925148,1305,0,0.105605020773
781,20140415_4.1Mw_20.04S_70.46W_29KM,2014-04-15 04:21:27.000000,4.1,-20.04,-70.46,interface,29.0,T07A,-20.2563,-69.786,79.86393764414275,326,0,0.129479109057
782,20140415_4.3Mw_20.23S_70.85W_22KM,2014-04-15 16:16:36.000000,4.3,-20.23,-70.85,interface,22.0,T01A,-20.2729,-70.1223,79.32201137900891,339,0,0.0753625683969
783,20140415_4.6Mw_20.2S_70.9W_39KM,2014-04-15 17:11:43.000000,4.6,-20.2,-70.9,interface,39.0,T01A,-20.2729,-70.1223,90.52555256178891,339,0,0.0701213519535
784,20140415_5.3Mw_20.19S_70.83W_27KM,2014-04-15 16:20:49.000000,5.3,-20.19,-70.83,interface,27.0,T10A,-19.9955,-69.7671,116.42501836504104,336,0,0.0751474009871
785,20140415_5.3Mw_20.19S_70.83W_27KM,2014-04-15 16:20:38.000000,5.3,-20.19,-70.83,interface,27.0,T03A,-20.2303,-70.1459,76.54051740397698,613,0,0.0627291998818
786,20140415_5.3Mw_20.19S_70.83W_27KM,2014-04-15 16:20:40.000000,5.3,-20.19,-70.83,interface,27.0,T08A,-20.2702,-70.0941,81.98922549080518,987,0,0.0691089930417
787,20140415_5.3Mw_20.19S_70.83W_27KM,2014-04-15 16:21:07.000000,5.3,-20.19,-70.83,interface,27.0,T11A,-19.3123779,-69.4272919,178.32217293145516,346,0,0.089971839444
788,20140415_5.3Mw_20.19S_70.83W_27KM,2014-04-15 16:20:39.000000,5.3,-20.19,-70.83,interface,27.0,T01A,-20.2729,-70.1223,79.28835828770406,339,0,0.234924271795
789,20140415_5.3Mw_20.19S_70.83W_27KM,2014-04-15 16:21:05.000000,5.3,-20.19,-70.83,interface,27.0,T13A,-20.4963,-69.3375,161.8030754818787,378,0,0.0635037553091
790,20140415_5.3Mw_20.19S_70.83W_27KM,2014-04-15 16:20:51.000000,5.3,-20.19,-70.83,interface,27.0,T07A,-20.2563,-69.786,112.6253798047771,326,0,0.0852289415352
791,20140415_5.3Mw_20.2S_70.86W_39KM,2014-04-15 16:08:55.000000,5.3,-20.2,-70.86,interface,39.0,T10A,-19.9955,-69.7671,122.89204001016167,336,0,0.0923375064809
792,20140415_5.3Mw_20.2S_70.86W_39KM,2014-04-15 16:08:58.000000,5.3,-20.2,-70.86,interface,39.0,T03A,-20.2303,-70.1459,84.25898579736237,613,0,0.0579619740945
793,20140415_5.3Mw_20.2S_70.86W_39KM,2014-04-15 16:08:50.000000,5.3,-20.2,-70.86,interface,39.0,T02A,-20.2525,-70.1181,86.98317460264919,269,0,0.247149806902
794,20140415_5.3Mw_20.2S_70.86W_39KM,2014-04-15 16:09:33.999998,5.3,-20.2,-70.86,interface,39.0,TA02,-20.2705,-70.1311,85.9273170990914,489,0,0.278476278962
795,20140415_5.3Mw_20.2S_70.86W_39KM,2014-04-15 16:08:59.000000,5.3,-20.2,-70.86,interface,39.0,T08A,-20.2702,-70.0941,89.37253633354713,987,0,0.0691619403233
796,20140415_5.3Mw_20.2S_70.86W_39KM,2014-04-15 16:09:25.000000,5.3,-20.2,-70.86,interface,39.0,T11A,-19.3123779,-69.4272919,183.68559685877855,346,0,0.0732112079918
797,20140415_5.3Mw_20.2S_70.86W_39KM,2014-04-15 16:08:49.000000,5.3,-20.2,-70.86,interface,39.0,T01A,-20.2729,-70.1223,86.79171623330008,339,0,0.357043270314
798,20140415_5.3Mw_20.2S_70.86W_39KM,2014-04-15 16:09:21.000000,5.3,-20.2,-70.86,interface,39.0,T13A,-20.4963,-69.3375,166.98304943681987,378,0,0.071721077071
799,20140415_5.3Mw_20.2S_70.86W_39KM,2014-04-15 16:09:08.000000,5.3,-20.2,-70.86,interface,39.0,T07A,-20.2563,-69.786,118.97299208007516,326,0,0.089326194981
800,20140416_4.4Mw_20.19S_70.88W_36KM,2014-04-16 03:19:02.000000,4.4,-20.19,-70.88,interface,36.0,T01A,-20.2729,-70.1223,87.48709563259506,339,0,0.0557901741059
801,20140416_5.3Mw_20.18S_70.85W_37KM,2014-04-16 03:13:34.000000,5.3,-20.18,-70.85,interface,37.0,T02A,-20.2525,-70.1181,85.34787926182517,269,0,0.080566136907
802,20140417_5.2Mw_22.53S_69.09W_98KM,2014-04-17 13:19:47.000000,5.2,-22.53,-69.09,intraslab,98.0,A05F,-22.8914,-69.3207,108.46851772612973,1000,0,0.387544991263
803,20140417_5.2Mw_22.53S_69.09W_98KM,2014-04-17 13:19:57.000000,5.2,-22.53,-69.09,intraslab,98.0,A07F,-21.628,-69.551,147.79544188308034,N/A,N/A,0.16330246859
804,20140417_5.2Mw_22.53S_69.09W_98KM,2014-04-17 13:19:49.000000,5.2,-22.53,-69.09,intraslab,98.0,A06F,-22.344,-69.658,115.96181109483061,294.68,0,0.169248158048
805,20140418_4.1Mw_20.53S_70.38W_39KM,2014-04-18 08:11:58.000000,4.1,-20.53,-70.38,interface,39.0,T02A,-20.2525,-70.1181,56.71164170757784,269,0,0.0853388832942
806,20140418_4.4Mw_20.66S_70.95W_46KM,2014-04-18 23:45:08.000000,4.4,-20.66,-70.95,intraslab,46.0,T01A,-20.2729,-70.1223,106.84006504511342,339,0,0.0603726156045
807,20140419_5.3Mw_19.96S_71.11W_40KM,2014-04-19 20:54:22.000000,5.3,-19.96,-71.11,intraslab,40.0,T10A,-19.9955,-69.7671,146.1926799789992,336,0,0.0912690779626
808,20140419_5.3Mw_19.96S_71.11W_40KM,2014-04-19 20:54:12.000000,5.3,-19.96,-71.11,intraslab,40.0,T03A,-20.2303,-70.1459,112.5072613542314,613,0,0.0574062812062
809,20140419_5.3Mw_19.96S_71.11W_40KM,2014-04-19 20:54:09.000000,5.3,-19.96,-71.11,intraslab,40.0,T07A,-20.2563,-69.786,147.79802743593527,326,0,0.165825081368
810,20140419_5.3Mw_19.96S_71.11W_40KM,2014-04-19 20:54:05.000000,5.3,-19.96,-71.11,intraslab,40.0,T01A,-20.2729,-70.1223,116.08020880506815,339,0,0.120759172737
811,20140419_5.3Mw_19.96S_71.11W_40KM,2014-04-19 20:54:35.000000,5.3,-19.96,-71.11,intraslab,40.0,T11A,-19.3123779,-69.4272919,194.69235938130836,346,0,0.0847035277526
812,20140421_5.2Mw_19.68S_70.96W_32KM,2014-04-21 13:38:46.000000,5.2,-19.68,-70.96,interface,32.0,T07A,-20.2563,-69.786,142.08943363189243,326,0,0.0596316551744
813,20140421_5.2Mw_19.68S_70.96W_32KM,2014-04-21 13:38:44.000000,5.2,-19.68,-70.96,interface,32.0,T10A,-19.9955,-69.7671,133.6330014422272,336,0,0.0701816017219
814,20140421_5.2Mw_19.68S_70.96W_32KM,2014-04-21 13:38:55.000000,5.2,-19.68,-70.96,interface,32.0,T11A,-19.3123779,-69.4272919,169.0595808384485,346,0,0.147026978961
815,20140423_4.6Mw_25.78S_70.76W_73KM,2014-04-23 18:14:34.000000,4.6,-25.78,-70.76,intraslab,73.0,A10F,-25.4111,-70.4843,88.14080667384901,1000,0,0.0789582486733
816,20140424_4.2Mw_20.01S_69.15W_94KM,2014-04-24 00:24:19.000000,4.2,-20.01,-69.15,interface,94.0,T11A,-19.3123779,-69.4272919,125.10101837550489,346,0,0.185762737787
817,20140424_4.2Mw_20.01S_69.15W_94KM,2014-04-24 00:24:15.000000,4.2,-20.01,-69.15,interface,94.0,T10A,-19.9955,-69.7671,114.05065170043086,336,0,0.107182155814
818,20140424_4.3Mw_18.08S_69.36W_128KM,2014-04-24 09:13:00.000000,4.3,-18.08,-69.36,interface,128.0,A04P,-18.8337,-69.7445,158.0957654539393,483,0,0.0682386646407
819,20140424_4.8Mw_19.9S_71.18W_36KM,2014-04-24 10:26:30.000000,4.8,-19.9,-71.18,intraslab,36.0,T07A,-20.2563,-69.786,155.26885637312597,326,0,0.0539745051768
820,20140424_4.8Mw_19.9S_71.18W_36KM,2014-04-24 10:26:23.000000,4.8,-19.9,-71.18,intraslab,36.0,T01A,-20.2729,-70.1223,123.47377200838065,339,0,0.0616155688268
821,20140424_4.9Mw_20.09S_70.91W_35KM,2014-04-24 04:56:19.000000,4.9,-20.09,-70.91,interface,35.0,T02A,-20.2525,-70.1181,91.65649263164039,269,0,0.0685132839982
822,20140424_4.9Mw_20.09S_70.91W_35KM,2014-04-24 04:56:16.000000,4.9,-20.09,-70.91,interface,35.0,T01A,-20.2729,-70.1223,91.7591276358052,339,0,0.104744763877
823,20140425_4.6Mw_20.28S_70.98W_37KM,2014-04-25 03:01:08.000000,4.6,-20.28,-70.98,intraslab,37.0,T02A,-20.2525,-70.1181,97.40732196631498,269,0,0.0616627933007
824,20140425_4.6Mw_20.28S_70.98W_37KM,2014-04-25 03:01:05.000000,4.6,-20.28,-70.98,intraslab,37.0,T01A,-20.2729,-70.1223,96.96911373933328,339,0,0.0656379294788
825,20140428_4Mw_20.51S_70.79W_26KM,2014-04-28 02:46:53.000000,4.0,-20.51,-70.79,interface,26.0,T02A,-20.2525,-70.1181,80.08208372913823,269,0,0.0891258489403
826,20140428_5Mw_19.56S_70.37W_43KM,2014-04-28 04:59:15.000000,5.0,-19.56,-70.37,interface,43.0,T12A,-20.0706844,-69.2172089,140.1463430638152,732,0,0.072443023397
827,20140428_5Mw_19.56S_70.37W_43KM,2014-04-28 04:59:06.000000,5.0,-19.56,-70.37,interface,43.0,T07A,-20.2563,-69.786,107.35353496842106,326,0,0.224369111031
828,20140428_5Mw_19.56S_70.37W_43KM,2014-04-28 04:59:01.000000,5.0,-19.56,-70.37,interface,43.0,T10A,-19.9955,-69.7671,90.33777406955876,336,0,0.220116937105
829,20140428_5Mw_19.56S_70.37W_43KM,2014-04-28 04:59:00.000000,5.0,-19.56,-70.37,interface,43.0,T03A,-20.2303,-70.1459,88.88494842321987,613,0,0.230007947355
830,20140428_5Mw_19.56S_70.37W_43KM,2014-04-28 04:59:08.000000,5.0,-19.56,-70.37,interface,43.0,T11A,-19.3123779,-69.4272919,111.39722337760563,346,0,0.11451216554
831,20140428_5Mw_19.56S_70.37W_43KM,2014-04-28 04:58:54.000000,5.0,-19.56,-70.37,interface,43.0,T02A,-20.2525,-70.1181,91.72682764703225,269,0,0.52419679404
832,20140428_5Mw_19.56S_70.37W_43KM,2014-04-28 04:58:48.000000,5.0,-19.56,-70.37,interface,43.0,T09A,-19.5957,-70.2108,46.29467119259796,1584,0,1.18190474814
833,20140428_5Mw_19.56S_70.37W_43KM,2014-04-28 04:59:02.000000,5.0,-19.56,-70.37,interface,43.0,T08A,-20.2702,-70.0941,94.13784194687526,987,0,0.128966072404
834,20140428_5Mw_19.56S_70.37W_43KM,2014-04-28 04:59:01.000000,5.0,-19.56,-70.37,interface,43.0,T04A,-20.2391,-70.1333,90.08334873486027,1305,0,0.120602359079
835,20140428_5Mw_19.56S_70.37W_43KM,2014-04-28 04:59:01.000000,5.0,-19.56,-70.37,interface,43.0,T06A,-20.2142,-70.1379,87.64115868267436,1263,0,0.0965172957881
836,20140428_5Mw_19.56S_70.37W_43KM,2014-04-28 04:59:22.000000,5.0,-19.56,-70.37,interface,43.0,T13A,-20.4963,-69.3375,155.77927877618845,378,0,0.0734056225754
837,20140428_5Mw_19.56S_70.37W_43KM,2014-04-28 04:59:00.000000,5.0,-19.56,-70.37,interface,43.0,T05A,-20.2098,-70.1502,86.93433772919235,1020,0,0.156635109036
838,20140501_4.8Mw_19.95S_71.28W_26KM,2014-05-01 16:45:03.000000,4.8,-19.95,-71.28,interface,26.0,T01A,-20.2729,-70.1223,128.91354747925902,339,0,0.0630623505315
839,20140504_4.5Mw_20.04S_70.92W_42KM,2014-05-04 19:20:59.000000,4.5,-20.04,-70.92,intraslab,42.0,T01A,-20.2729,-70.1223,96.89763763579609,339,0,0.0647147242423
840,20140504_4.9Mw_20.01S_71.06W_31KM,2014-05-04 04:46:17.000000,4.9,-20.01,-71.06,interface,31.0,T01A,-20.2729,-70.1223,106.89521660774638,339,0,0.0747873799591
841,20140504_4.9Mw_20.01S_71.06W_31KM,2014-05-04 04:46:25.000000,4.9,-20.01,-71.06,interface,31.0,T10A,-19.9955,-69.7671,138.82192871317156,336,0,0.0542938605732
842,20140504_4.9Mw_20.01S_71.06W_31KM,2014-05-04 04:46:26.000000,4.9,-20.01,-71.06,interface,31.0,T07A,-20.2563,-69.786,139.4522646780829,326,0,0.0914372810191
843,20140505_4.1Mw_19.93S_70.88W_41KM,2014-05-05 03:06:06.000000,4.1,-19.93,-70.88,interface,41.0,T07A,-20.2563,-69.786,126.78537745263037,326,0,0.0868925040123
844,20140505_4.5Mw_20.18S_70.35W_42KM,2014-05-05 02:00:60.000000,4.5,-20.18,-70.35,interface,42.0,T07A,-20.2563,-69.786,72.86031559479768,326,0,0.0934264811373
845,20140505_4.5Mw_20.18S_70.35W_42KM,2014-05-05 02:00:60.000000,4.5,-20.18,-70.35,interface,42.0,T10A,-19.9955,-69.7671,76.82089754340387,336,0,0.154780045279
846,20140505_4.5Mw_20.18S_70.35W_42KM,2014-05-05 02:00:52.000000,4.5,-20.18,-70.35,interface,42.0,T03A,-20.2303,-70.1459,47.42564995468453,613,0,0.306737633994
847,20140505_4.5Mw_20.18S_70.35W_42KM,2014-05-05 02:01:20.000000,4.5,-20.18,-70.35,interface,42.0,T11A,-19.3123779,-69.4272919,142.67446570971035,346,0,0.0775650106658
848,20140505_4.5Mw_20.18S_70.35W_42KM,2014-05-05 02:00:51.000000,4.5,-20.18,-70.35,interface,42.0,T02A,-20.2525,-70.1181,49.146181882466514,269,0,0.285513009392
849,20140505_4.5Mw_20.18S_70.35W_42KM,2014-05-05 02:00:52.000000,4.5,-20.18,-70.35,interface,42.0,T06A,-20.2142,-70.1379,47.63528666871203,1263,0,0.178197658737
850,20140505_4.5Mw_20.18S_70.35W_42KM,2014-05-05 02:00:53.000000,4.5,-20.18,-70.35,interface,42.0,T08A,-20.2702,-70.0941,50.78297282253187,987,0,0.120001954134
851,20140505_4.5Mw_20.18S_70.35W_42KM,2014-05-05 02:00:51.000000,4.5,-20.18,-70.35,interface,42.0,T05A,-20.2098,-70.1502,47.03177254311666,1020,0,0.270533624066
852,20140505_4.5Mw_20.18S_70.35W_42KM,2014-05-05 02:00:52.000000,4.5,-20.18,-70.35,interface,42.0,T04A,-20.2391,-70.1333,48.176393733721774,1305,0,0.130637983757
853,20140505_4.5Mw_20.18S_70.35W_42KM,2014-05-05 02:00:52.000000,4.5,-20.18,-70.35,interface,42.0,T01A,-20.2729,-70.1223,49.37249970547831,339,0,0.466334017586
854,20140505_4.5Mw_20.18S_70.35W_42KM,2014-05-05 02:01:13.000000,4.5,-20.18,-70.35,interface,42.0,T13A,-20.4963,-69.3375,119.06753750690788,378,0,0.0633162757654
855,20140505_4.6Mw_19.93S_70.83W_43KM,2014-05-05 02:51:41.000000,4.6,-19.93,-70.83,intraslab,43.0,T07A,-20.2563,-69.786,122.77320064378023,326,0,0.133311877708
856,20140505_4.6Mw_19.93S_70.83W_43KM,2014-05-05 02:51:34.000000,4.6,-19.93,-70.83,intraslab,43.0,T01A,-20.2729,-70.1223,93.66503501387214,339,0,0.0550938520829
857,20140505_4.7Mw_19.28S_71.03W_37KM,2014-05-05 09:02:42.000000,4.7,-19.28,-71.03,interface,37.0,T11A,-19.3123779,-69.4272919,172.53308454251174,346,0,0.0942833769553
858,20140505_4.7Mw_19.28S_71.03W_37KM,2014-05-05 09:02:38.000000,4.7,-19.28,-71.03,interface,37.0,T10A,-19.9955,-69.7671,158.68670901219502,336,0,0.066283621324
859,20140505_4.8Mw_19.86S_70.87W_42KM,2014-05-05 22:52:01.000000,4.8,-19.86,-70.87,interface,42.0,T07A,-20.2563,-69.786,128.6249322787328,326,0,0.0564123512531
