,Earthquake Name,Start time record,Magnitude [Mw],Hypocenter latitude,Hypocenter longitude,Event type,Depth [km],Station name,Station latitude,Station longitude,Distance of rupture [km],Vs30 [m/s],Azimut [o],PGA (from 3 components) [g]
369,20140323_6.1Mw_19.79S_70.94W_33KM,2014-03-23 18:19:60.000000,6.1,-19.79,-70.94,interface,33.0,AP01,-18.3708,-70.3419,165.0042969060605,355,0,0.208744853702
370,20140323_6.1Mw_19.79S_70.94W_33KM,2014-03-23 18:19:16.000000,6.1,-19.79,-70.94,interface,33.0,T09A,-19.5957,-70.2108,79.18066002718633,1584,0,0.259618536349
371,20140323_6.1Mw_19.79S_70.94W_33KM,2014-03-23 18:19:33.000000,6.1,-19.79,-70.94,interface,33.0,T08A,-20.2702,-70.0941,101.27323747228641,987,0,0.50519660449
372,20140323_6.1Mw_19.79S_70.94W_33KM,2014-03-23 18:19:54.000000,6.1,-19.79,-70.94,interface,33.0,T13A,-20.4963,-69.3375,179.55422674836046,378,0,0.337855642177
373,20140323_6.1Mw_19.79S_70.94W_33KM,2014-03-23 18:19:22.000000,6.1,-19.79,-70.94,interface,33.0,T06A,-20.2142,-70.1379,94.62090849339337,1263,0,0.457531129564
374,20140323_6.1Mw_19.79S_70.94W_33KM,2014-03-23 18:19:25.000000,6.1,-19.79,-70.94,interface,33.0,T07A,-20.2563,-69.786,127.48198619026606,326,0,0.570010299522
375,20140323_6.1Mw_19.79S_70.94W_33KM,2014-03-23 18:19:31.000000,6.1,-19.79,-70.94,interface,33.0,T03A,-20.2303,-70.1459,94.82960894753964,613,0,0.610217717106
376,20140324_5.1Mw_19.8S_70.81W_42KM,2014-03-24 11:31:50.000000,5.1,-19.8,-70.81,interface,42.0,T07A,-20.2563,-69.786,125.66283821615932,326,0,0.141409827705
377,20140324_5.3Mw_19.82S_70.87W_41KM,2014-03-24 11:40:20.000000,5.3,-19.82,-70.87,interface,41.0,T07A,-20.2563,-69.786,129.89407592783115,326,0,0.173823231184
378,20140324_5.3Mw_19.82S_70.87W_41KM,2014-03-24 11:40:13.000000,5.3,-19.82,-70.87,interface,41.0,T03A,-20.2303,-70.1459,97.36299412077523,613,0,0.144599939037
379,20140324_5.4Mw_19.88S_70.84W_5KM,2014-03-24 11:26:11.000000,5.4,-19.88,-70.84,interface,5.0,T08A,-20.2702,-70.0941,89.31781981417829,987,0,0.113321803942
380,20140324_5.4Mw_19.88S_70.84W_5KM,2014-03-24 11:26:07.000000,5.4,-19.88,-70.84,interface,5.0,T03A,-20.2303,-70.1459,82.44400225600621,613,0,0.165799489086
381,20140324_5.4Mw_19.88S_70.84W_5KM,2014-03-24 11:26:15.000000,5.4,-19.88,-70.84,interface,5.0,T07A,-20.2563,-69.786,117.95228950153866,326,0,0.169507072937
382,20140324_5.5Mw_19.59S_70.79W_43KM,2014-03-24 15:45:10.000000,5.5,-19.59,-70.79,interface,43.0,T07A,-20.2563,-69.786,135.40379781051064,326,0,0.142733276181
383,20140324_5.5Mw_19.59S_70.79W_43KM,2014-03-24 15:45:02.000000,5.5,-19.59,-70.79,interface,43.0,T03A,-20.2303,-70.1459,106.84375456243171,613,0,0.144995825044
384,20140331_5.6Mw_19.51S_69.17W_114KM,2014-03-31 12:52:39.000000,5.6,-19.51,-69.17,intraslab,114.0,T10A,-19.9955,-69.7671,140.69032049129981,336,0,0.236148148901
385,20140331_5.6Mw_19.51S_69.17W_114KM,2014-03-31 12:53:06.000000,5.6,-19.51,-69.17,intraslab,114.0,PB11,-19.761,-69.6558,127.93137407083606,1044,0,0.370918540579
386,20140331_5.6Mw_19.51S_69.17W_114KM,2014-03-31 12:52:44.000000,5.6,-19.51,-69.17,intraslab,114.0,T13A,-20.4963,-69.3375,158.79575707014544,378,0,0.247238887958
387,20140331_5.6Mw_19.51S_69.17W_114KM,2014-03-31 12:53:05.998300,5.6,-19.51,-69.17,intraslab,114.0,GO01,-19.6686,-69.1942,115.3782541698131,973,0,0.561609874878
388,20140331_5.6Mw_19.51S_69.17W_114KM,2014-03-31 12:53:06.000000,5.6,-19.51,-69.17,intraslab,114.0,MNMCX,-19.13108,-69.59553,129.46144065656165,693,0,0.371620444666
389,20140331_5.6Mw_19.51S_69.17W_114KM,2014-03-31 12:52:43.000000,5.6,-19.51,-69.17,intraslab,114.0,T07A,-20.2563,-69.786,154.84713980359032,326,0,0.228407417982
390,20140401_8.2Mw_19.57S_70.91W_38KM,2014-04-01 23:46:44.998393,8.2,-19.57,-70.91,interface,38.0,PB01,-21.043228,-69.487399,129.72966952156168,603,0,1.05068485291
391,20140401_8.2Mw_19.57S_70.91W_38KM,2014-04-01 23:46:44.998392,8.2,-19.57,-70.91,interface,38.0,PB08,-20.141083,-69.153496,137.94927626601657,742,0,0.933649414154
392,20140401_8.2Mw_19.57S_70.91W_38KM,2014-04-01 23:46:44.998393,8.2,-19.57,-70.91,interface,38.0,PB02,-21.31973,-69.89603,128.40874250036742,746,0,1.65250725106
393,20140401_8.2Mw_19.57S_70.91W_38KM,2014-04-01 23:46:44.998391,8.2,-19.57,-70.91,interface,38.0,PB03,-22.04764,-69.753265,204.72643983017159,711,0,0.373040949354
394,20140401_8.2Mw_19.57S_70.91W_38KM,2014-04-01 23:46:45.000000,8.2,-19.57,-70.91,interface,38.0,HMBCX,-20.2782,-69.8879,71.76849207656761,743,0,2.54103911115
395,20140401_8.2Mw_19.57S_70.91W_38KM,2014-04-01 23:46:44.998391,8.2,-19.57,-70.91,interface,38.0,PB04,-22.333499,-70.14939,226.22556475130904,563,0,0.353691650045
396,20140401_8.2Mw_19.57S_70.91W_38KM,2014-04-01 23:46:44.999998,8.2,-19.57,-70.91,interface,38.0,MNMCX,-19.13108,-69.59553,105.66874811032355,693,0,4.49767416788
397,20140401_8.2Mw_19.57S_70.91W_38KM,2014-04-01 23:46:10.000000,8.2,-19.57,-70.91,interface,38.0,T10A,-19.9955,-69.7671,83.30656604339659,336,0,10.2587705714
398,20140401_8.2Mw_19.57S_70.91W_38KM,2014-04-01 23:46:45.000000,8.2,-19.57,-70.91,interface,38.0,PB09,-21.79638,-69.24192,204.48008299981507,649,0,0.785616353497
399,20140401_8.2Mw_19.57S_70.91W_38KM,2014-04-01 23:46:09.000000,8.2,-19.57,-70.91,interface,38.0,T08A,-20.2702,-70.0941,58.819447805626844,987,0,4.37413008575
400,20140401_8.2Mw_19.57S_70.91W_38KM,2014-04-01 23:46:11.000000,8.2,-19.57,-70.91,interface,38.0,T03A,-20.2303,-70.1459,56.53425687689863,613,0,5.93996582859
401,20140401_8.2Mw_19.57S_70.91W_38KM,2014-04-01 23:46:44.999998,8.2,-19.57,-70.91,interface,38.0,PB11,-19.761,-69.6558,94.72993101728291,1044,0,7.37244005709
402,20140401_8.2Mw_19.57S_70.91W_38KM,2014-04-01 23:46:44.998392,8.2,-19.57,-70.91,interface,38.0,PB15,-23.208325,-69.47092,333.4911660118536,532,0,0.528898621107
403,20140401_8.2Mw_19.57S_70.91W_38KM,2014-04-01 23:46:45.000000,8.2,-19.57,-70.91,interface,38.0,PB12,-18.614058,-70.328085,55.80862897770075,599,0,1.07476088308
404,20140401_8.2Mw_19.57S_70.91W_38KM,2014-04-01 23:46:44.999997,8.2,-19.57,-70.91,interface,38.0,PB16,-18.3351,-69.50767,124.98288643742806,861,0,0.357389819402
405,20140401_8.2Mw_19.57S_70.91W_38KM,2014-04-01 23:46:45.000000,8.2,-19.57,-70.91,interface,38.0,PSGCX,-19.5972,-70.1231,60.692848631936656,1639,0,1.8390496185
406,20140401_8.2Mw_19.57S_70.91W_38KM,2014-04-01 23:46:02.000000,8.2,-19.57,-70.91,interface,38.0,T09A,-19.5957,-70.2108,56.32241777852454,1584,0,5.64632499195
407,20140401_8.2Mw_19.57S_70.91W_38KM,2014-04-01 23:46:44.998300,8.2,-19.57,-70.91,interface,38.0,GO01,-19.6686,-69.1942,138.62823819153337,973,0,3.545454367
408,20140401_8.2Mw_19.57S_70.91W_38KM,2014-04-01 23:46:44.998393,8.2,-19.57,-70.91,interface,38.0,PB07,-21.7266,-69.88612,168.14118079484535,644,0,0.62632727769
409,20140401_8.2Mw_19.57S_70.91W_38KM,2014-04-01 23:46:45.000000,8.2,-19.57,-70.91,interface,38.0,TA01,-20.5656,-70.1807,59.60888046563145,1339,0,1.92443876972
410,20140401_8.2Mw_19.57S_70.91W_38KM,2014-04-01 23:46:15.000000,8.2,-19.57,-70.91,interface,38.0,T06A,-20.2142,-70.1379,56.95947276555121,1263,0,2.61460660513
411,20140401_8.2Mw_19.57S_70.91W_38KM,2014-04-01 23:46:14.000000,8.2,-19.57,-70.91,interface,38.0,T05A,-20.2098,-70.1502,56.43176169176998,1020,0,2.99451685951
412,20140401_8.2Mw_19.57S_70.91W_38KM,2014-04-01 23:46:45.000000,8.2,-19.57,-70.91,interface,38.0,AP01,-18.3708,-70.3419,65.5573965458538,355,0,1.65838752615
413,20140401_8.2Mw_19.57S_70.91W_38KM,2014-04-01 23:46:26.000000,8.2,-19.57,-70.91,interface,38.0,T13A,-20.4963,-69.3375,119.82889261216536,378,0,3.33648203406
414,20140401_8.2Mw_19.57S_70.91W_38KM,2014-04-01 23:46:14.000000,8.2,-19.57,-70.91,interface,38.0,T07A,-20.2563,-69.786,79.71997231487772,326,0,6.01443495774
415,20140402_4.2Mw_20.16S_70.07W_43KM,2014-04-02 04:57:27.000000,4.2,-20.16,-70.07,interface,43.0,T08A,-20.2702,-70.0941,44.761463498203824,987,0,0.57477016683
416,20140402_4.2Mw_20.16S_70.07W_43KM,2014-04-02 04:57:27.000000,4.2,-20.16,-70.07,interface,43.0,T03A,-20.2303,-70.1459,44.40890595697091,613,0,0.206788765234
417,20140402_4.2Mw_20.16S_70.07W_43KM,2014-04-02 04:57:31.000000,4.2,-20.16,-70.07,interface,43.0,T10A,-19.9955,-69.7671,56.45418293639743,336,0,0.165021679664
418,20140402_4.2Mw_20.16S_70.07W_43KM,2014-04-02 04:57:30.000000,4.2,-20.16,-70.07,interface,43.0,T07A,-20.2563,-69.786,53.318715611379616,326,0,0.523857953152
419,20140402_4.3Mw_19.39S_70.26W_38KM,2014-04-02 03:22:38.000000,4.3,-19.39,-70.26,interface,38.0,T09A,-19.5957,-70.2108,44.61471653100489,1584,0,0.194888841455
420,20140402_4.3Mw_19.8S_70.29W_41KM,2014-04-02 17:11:45.000000,4.3,-19.8,-70.29,interface,41.0,T09A,-19.5957,-70.2108,47.535166639574655,1584,0,0.6748136165
421,20140402_4.3Mw_19.8S_70.29W_41KM,2014-04-02 17:11:52.000000,4.3,-19.8,-70.29,interface,41.0,T10A,-19.9955,-69.7671,71.73761134278148,336,0,0.157638266126
422,20140402_4.3Mw_19.8S_70.29W_41KM,2014-04-02 17:11:49.000000,4.3,-19.8,-70.29,interface,41.0,T05A,-20.2098,-70.1502,62.89488712351908,1020,0,0.135180124906
423,20140402_4.3Mw_19.8S_70.29W_41KM,2014-04-02 17:11:55.000000,4.3,-19.8,-70.29,interface,41.0,T07A,-20.2563,-69.786,83.72627376935155,326,0,0.221250116086
424,20140402_4.4Mw_19.89S_70.08W_52KM,2014-04-02 17:39:37.000000,4.4,-19.89,-70.08,interface,52.0,T08A,-20.2702,-70.0941,66.90188145173177,987,0,0.249782866525
425,20140402_4.4Mw_19.89S_70.08W_52KM,2014-04-02 17:39:37.000000,4.4,-19.89,-70.08,interface,52.0,T03A,-20.2303,-70.1459,64.56325791087876,613,0,0.141845854967
426,20140402_4.4Mw_19.89S_70.08W_52KM,2014-04-02 17:39:36.000000,4.4,-19.89,-70.08,interface,52.0,T10A,-19.9955,-69.7671,62.55199190679106,336,0,0.731938571573
427,20140402_4.4Mw_19.89S_70.08W_52KM,2014-04-02 17:39:38.000000,4.4,-19.89,-70.08,interface,52.0,T07A,-20.2563,-69.786,72.74200815477064,326,0,0.166095444605
428,20140402_4.4Mw_20.16S_70.4W_35KM,2014-04-02 19:28:50.000000,4.4,-20.16,-70.4,interface,35.0,T08A,-20.2702,-70.0941,48.94802812572051,987,0,0.113107343667
429,20140402_4.4Mw_20.16S_70.4W_35KM,2014-04-02 19:28:48.000000,4.4,-20.16,-70.4,interface,35.0,T03A,-20.2303,-70.1459,44.60742644507482,613,0,0.156364088848
430,20140402_4.4Mw_20.16S_70.4W_35KM,2014-04-02 19:28:57.000000,4.4,-20.16,-70.4,interface,35.0,T10A,-19.9955,-69.7671,77.08630942819808,336,0,0.212383549615
431,20140402_4.5Mw_19.75S_69.97W_42KM,2014-04-02 03:03:56.000000,4.5,-19.75,-69.97,interface,42.0,T10A,-19.9955,-69.7671,54.32877419435044,336,0,0.344117213481
432,20140402_4.5Mw_19.75S_69.97W_42KM,2014-04-02 03:03:55.000000,4.5,-19.75,-69.97,interface,42.0,T03A,-20.2303,-70.1459,70.19192072521047,613,0,0.198490012812
433,20140402_4.5Mw_19.75S_69.97W_42KM,2014-04-02 03:03:54.000000,4.5,-19.75,-69.97,interface,42.0,T09A,-19.5957,-70.2108,51.89684668622365,1584,0,0.791975310356
434,20140402_4.5Mw_19.75S_69.97W_42KM,2014-04-02 03:03:56.000000,4.5,-19.75,-69.97,interface,42.0,T08A,-20.2702,-70.0941,72.43092241381572,987,0,0.340791417582
435,20140402_4.5Mw_19.75S_69.97W_42KM,2014-04-02 03:03:55.000000,4.5,-19.75,-69.97,interface,42.0,T05A,-20.2098,-70.1502,68.64502321172415,1020,0,0.324475239474
436,20140402_4.5Mw_19.75S_69.97W_42KM,2014-04-02 03:03:55.000000,4.5,-19.75,-69.97,interface,42.0,T06A,-20.2142,-70.1379,68.64172085085193,1263,0,0.26692485624
437,20140402_4.5Mw_19.75S_69.97W_42KM,2014-04-02 03:03:58.000000,4.5,-19.75,-69.97,interface,42.0,T07A,-20.2563,-69.786,72.61250692438088,326,0,0.192272978014
438,20140402_4.5Mw_19.8S_70.48W_33KM,2014-04-02 00:57:05.000000,4.5,-19.8,-70.48,interface,33.0,T09A,-19.5957,-70.2108,48.93277150896985,1584,0,0.29690982554
439,20140402_4.5Mw_20.12S_70.39W_30KM,2014-04-02 03:20:01.000000,4.5,-20.12,-70.39,interface,30.0,T03A,-20.2303,-70.1459,41.21685958580452,613,0,0.190209233978
440,20140402_4.6Mw_20.06S_70.52W_28KM,2014-04-02 19:49:47.000000,4.6,-20.06,-70.52,interface,28.0,T07A,-20.2563,-69.786,84.51577282552134,326,0,0.120339433786
441,20140402_4.6Mw_20.15S_70.1W_45KM,2014-04-02 07:03:02.000000,4.6,-20.15,-70.1,interface,45.0,T10A,-19.9955,-69.7671,59.43629827561098,336,0,0.284034420529
442,20140402_4.6Mw_20.15S_70.1W_45KM,2014-04-02 07:02:57.000000,4.6,-20.15,-70.1,interface,45.0,T03A,-20.2303,-70.1459,46.11458226559993,613,0,0.224400444982
443,20140402_4.6Mw_20.15S_70.1W_45KM,2014-04-02 07:02:57.000000,4.6,-20.15,-70.1,interface,45.0,T06A,-20.2142,-70.1379,45.727203294287264,1263,0,0.181498377969
444,20140402_4.6Mw_20.15S_70.1W_45KM,2014-04-02 07:02:58.000000,4.6,-20.15,-70.1,interface,45.0,T08A,-20.2702,-70.0941,46.92419320284483,987,0,0.521335081151
445,20140402_4.6Mw_20.15S_70.1W_45KM,2014-04-02 07:03:01.000000,4.6,-20.15,-70.1,interface,45.0,T07A,-20.2563,-69.786,56.91795655608619,326,0,0.473471461279
446,20140402_4.6Mw_20.15S_70.1W_45KM,2014-04-02 07:02:57.000000,4.6,-20.15,-70.1,interface,45.0,T05A,-20.2098,-70.1502,45.786858756539715,1020,0,0.231847675322
447,20140402_4.7Mw_20.38S_70.58W_26KM,2014-04-02 05:08:47.000000,4.7,-20.38,-70.58,interface,26.0,T07A,-20.2563,-69.786,87.97975506131942,326,0,0.106785221174
448,20140402_4.8Mw_19.57S_70.53W_33KM,2014-04-02 04:12:23.000000,4.8,-19.57,-70.53,interface,33.0,T09A,-19.5957,-70.2108,47.09020401633526,1584,0,0.364016691904
449,20140402_4.8Mw_19.57S_70.53W_33KM,2014-04-02 04:12:37.000000,4.8,-19.57,-70.53,interface,33.0,T10A,-19.9955,-69.7671,98.46447472745892,336,0,0.136273207417
450,20140402_4.8Mw_19.57S_70.53W_33KM,2014-04-02 04:12:34.000000,4.8,-19.57,-70.53,interface,33.0,T05A,-20.2098,-70.1502,87.70518289976309,1020,0,0.112128944254
451,20140402_4.8Mw_19.57S_70.53W_33KM,2014-04-02 04:12:42.000000,4.8,-19.57,-70.53,interface,33.0,T07A,-20.2563,-69.786,113.68626353310381,326,0,0.112297011237
452,20140402_4.9Mw_19.95S_70.88W_28KM,2014-04-02 04:15:46.000000,4.9,-19.95,-70.88,interface,28.0,T07A,-20.2563,-69.786,122.56005157456795,326,0,0.219744293302
453,20140402_4Mw_19.85S_70.27W_41KM,2014-04-02 19:42:37.000000,4.0,-19.85,-70.27,interface,41.0,T08A,-20.2702,-70.0941,64.66720950673563,987,0,0.0934724860141
454,20140402_4Mw_19.85S_70.27W_41KM,2014-04-02 19:42:38.000000,4.0,-19.85,-70.27,interface,41.0,T10A,-19.9955,-69.7671,68.64455083789605,336,0,0.152587227011
455,20140402_4Mw_19.95S_70.4W_33KM,2014-04-02 16:13:02.000000,4.0,-19.95,-70.4,interface,33.0,T07A,-20.2563,-69.786,79.74750482141792,326,0,0.150609533059
456,20140402_4Mw_20.08S_70.47W_28KM,2014-04-02 08:20:34.000000,4.0,-20.08,-70.47,interface,28.0,T03A,-20.2303,-70.1459,46.979692920422515,613,0,0.115087997947
457,20140402_5.1Mw_19.62S_70.63W_36KM,2014-04-02 00:04:09.000000,5.1,-19.62,-70.63,interface,36.0,T09A,-19.5957,-70.2108,56.87766238079564,1584,0,0.21720388173
458,20140402_5.1Mw_19.89S_71.11W_39KM,2014-04-02 04:19:31.000000,5.1,-19.89,-71.11,intraslab,39.0,T07A,-20.2563,-69.786,149.47127332821137,326,0,0.115795041374
459,20140402_5.1Mw_20.03S_70.52W_34KM,2014-04-02 00:37:14.000000,5.1,-20.03,-70.52,interface,34.0,T10A,-19.9955,-69.7671,85.90311070432902,336,0,0.200029234613
460,20140402_5.1Mw_20.03S_70.52W_34KM,2014-04-02 00:37:06.000000,5.1,-20.03,-70.52,interface,34.0,T03A,-20.2303,-70.1459,56.35149699079307,613,0,0.5352996611
461,20140402_5.1Mw_20.03S_70.52W_34KM,2014-04-02 00:37:08.000000,5.1,-20.03,-70.52,interface,34.0,T09A,-19.5957,-70.2108,67.17406502652916,1584,0,0.22487153692
462,20140402_5.1Mw_20.03S_70.52W_34KM,2014-04-02 00:37:07.000000,5.1,-20.03,-70.52,interface,34.0,T08A,-20.2702,-70.0941,62.01210662408393,987,0,0.137217479868
463,20140402_5.1Mw_20.03S_70.52W_34KM,2014-04-02 00:37:05.000000,5.1,-20.03,-70.52,interface,34.0,T05A,-20.2098,-70.1502,55.2268094619131,1020,0,0.273893255267
464,20140402_5.1Mw_20.03S_70.52W_34KM,2014-04-02 00:37:06.000000,5.1,-20.03,-70.52,interface,34.0,T06A,-20.2142,-70.1379,56.27144940668757,1263,0,0.274443384051
465,20140402_5.1Mw_20.03S_70.52W_34KM,2014-04-02 00:37:04.000000,5.1,-20.03,-70.52,interface,34.0,T07A,-20.2563,-69.786,87.58535970494705,326,0,0.645950382515
466,20140402_5.1Mw_20.06S_71.02W_2KM,2014-04-02 00:20:45.000000,5.1,-20.06,-71.02,interface,2.0,T07A,-20.2563,-69.786,130.83217034733332,326,0,0.143354419321
467,20140402_5.1Mw_20.06S_71.02W_2KM,2014-04-02 00:20:18.000000,5.1,-20.06,-71.02,interface,2.0,T03A,-20.2303,-70.1459,93.31675142532272,613,0,0.151798888318
468,20140402_5.3Mw_19.99S_71.05W_32KM,2014-04-02 11:07:09.000000,5.3,-19.99,-71.05,interface,32.0,T07A,-20.2563,-69.786,139.14086980918884,326,0,0.158336780648
469,20140402_5.4Mw_20.19S_70.82W_23KM,2014-04-02 00:33:19.000000,5.4,-20.19,-70.82,interface,23.0,T07A,-20.2563,-69.786,110.71386339244182,326,0,0.267495385794
470,20140402_5.4Mw_20.19S_70.82W_23KM,2014-04-02 00:33:19.000000,5.4,-20.19,-70.82,interface,23.0,T10A,-19.9955,-69.7671,114.55712362162144,336,0,0.22284805183
471,20140402_5.7Mw_20.13S_70.79W_38KM,2014-04-02 04:45:54.000000,5.7,-20.13,-70.79,interface,38.0,T10A,-19.9955,-69.7671,114.53737099506354,336,0,0.140157095775
472,20140402_5.7Mw_20.13S_70.79W_38KM,2014-04-02 04:45:42.000000,5.7,-20.13,-70.79,interface,38.0,T03A,-20.2303,-70.1459,78.08948357697611,613,0,0.16054657729
473,20140402_5.7Mw_20.13S_70.79W_38KM,2014-04-02 04:46:07.000000,5.7,-20.13,-70.79,interface,38.0,T13A,-20.4963,-69.3375,161.5965121449138,378,0,0.130031655736
474,20140402_5.9Mw_19.84S_70.93W_22KM,2014-04-02 00:02:49.000000,5.9,-19.84,-70.93,interface,22.0,T10A,-19.9955,-69.7671,124.92304413264273,336,0,0.12171189156
475,20140402_5.9Mw_19.84S_70.93W_22KM,2014-04-02 00:02:41.000000,5.9,-19.84,-70.93,interface,22.0,T03A,-20.2303,-70.1459,95.26881248383229,613,0,0.152984918659
476,20140402_5.9Mw_19.84S_70.93W_22KM,2014-04-02 00:02:50.000000,5.9,-19.84,-70.93,interface,22.0,T07A,-20.2563,-69.786,130.10781692104118,326,0,0.136025061437
477,20140402_5.9Mw_19.84S_70.93W_22KM,2014-04-02 00:02:41.000000,5.9,-19.84,-70.93,interface,22.0,T06A,-20.2142,-70.1379,95.21049214731762,1263,0,0.139663786973
478,20140402_5.9Mw_19.84S_70.93W_22KM,2014-04-02 00:02:41.000000,5.9,-19.84,-70.93,interface,22.0,T05A,-20.2098,-70.1502,93.9267064780672,1020,0,0.166285221359
479,20140402_5Mw_19.97S_71.12W_33KM,2014-04-02 03:39:60.000000,5.0,-19.97,-71.12,interface,33.0,T07A,-20.2563,-69.786,146.8038599943493,326,0,0.103771092367
480,20140403_4.1Mw_20.31S_70.51W_21KM,2014-04-03 23:00:59.000000,4.1,-20.31,-70.51,interface,21.0,T08A,-20.2702,-70.0941,48.464050816352334,987,0,0.0863922415758
481,20140403_4.2Mw_20.07S_70.55W_33KM,2014-04-03 20:28:05.000000,4.2,-20.07,-70.55,interface,33.0,T07A,-20.2563,-69.786,88.83605276437432,326,0,0.125286687181
482,20140403_4.3Mw_20.17S_70.37W_34KM,2014-04-03 23:12:41.000000,4.3,-20.17,-70.37,interface,34.0,T10A,-19.9955,-69.7671,74.2229873275685,336,0,0.0928683026914
483,20140403_4.4Mw_20.36S_70.03W_42KM,2014-04-03 06:55:58.000000,4.4,-20.36,-70.03,interface,42.0,T08A,-20.2702,-70.0941,43.68010839474484,987,0,0.68086055155
484,20140403_4.4Mw_20.36S_70.03W_42KM,2014-04-03 06:56:09.000000,4.4,-20.36,-70.03,interface,42.0,T10A,-19.9955,-69.7671,64.44035284529653,336,0,0.223798180014
485,20140403_4.4Mw_20.36S_70.03W_42KM,2014-04-03 06:56:05.000000,4.4,-20.36,-70.03,interface,42.0,T07A,-20.2563,-69.786,50.45781184175706,326,0,0.836119595911
486,20140403_4.5Mw_20.35S_70.54W_26KM,2014-04-03 04:04:02.000000,4.5,-20.35,-70.54,interface,26.0,T08A,-20.2702,-70.0941,54.07574724012863,987,0,0.12438555347
487,20140403_4.5Mw_20.35S_70.54W_26KM,2014-04-03 04:04:01.000000,4.5,-20.35,-70.54,interface,26.0,T03A,-20.2303,-70.1459,50.46003984690081,613,0,0.296183631636
488,20140403_4.5Mw_20.35S_70.54W_26KM,2014-04-03 04:04:11.000000,4.5,-20.35,-70.54,interface,26.0,T07A,-20.2563,-69.786,83.5830979856272,326,0,0.155026623217
489,20140403_4.5Mw_20.35S_70.54W_26KM,2014-04-03 04:04:02.000000,4.5,-20.35,-70.54,interface,26.0,T06A,-20.2142,-70.1379,51.634062939884366,1263,0,0.2191595715
490,20140403_4.5Mw_20.35S_70.54W_26KM,2014-04-03 04:04:13.000000,4.5,-20.35,-70.54,interface,26.0,T10A,-19.9955,-69.7671,93.54010603090732,336,0,0.137722024238
491,20140403_4.5Mw_20.48S_70.49W_27KM,2014-04-03 13:48:38.000000,4.5,-20.48,-70.49,interface,27.0,T03A,-20.2303,-70.1459,52.77375537148078,613,0,0.130281903588
