,Earthquake Name,Start time record,Magnitude [Mw],Hypocenter latitude,Hypocenter longitude,Event type,Depth [km],Station name,Station latitude,Station longitude,Distance of rupture [km],Vs30 [m/s],Azimut [o],PGA (from 3 components) [g]
246,20121011_5.7Mw_32.88S_70.65W_95KM,2012-10-11 17:22:09.998394,5.7,-32.88,-70.65,intraslab,95.0,LMEL,-33.8476,-70.2034,149.1686583385916,808,0,0.875647257379
247,20121011_5.7Mw_32.88S_70.65W_95KM,2012-10-11 17:22:09.999536,5.7,-32.88,-70.65,intraslab,95.0,ROC1,-32.9759,-71.0156,101.53893373498612,1951,0,0.321299205158
248,20121113_5.1Mw_20.54S_69.03W_93KM,2012-11-13 03:11:25.000000,5.1,-20.54,-69.03,interface,93.0,PB11,-19.761,-69.6558,142.7218166144055,1044,0,0.224122816955
249,20121114_5.7Mw_29.24S_71.23W_82KM,2012-11-14 19:02:02.998392,5.7,-29.24,-71.23,intraslab,82.0,GO04,-30.1727,-70.7993,138.4170494166407,405,0,0.414930714568
250,20121116_5.3Mw_21.51S_69.49W_61KM,2012-11-16 00:38:05.000000,5.3,-21.51,-69.49,interface,61.0,PB09,-21.79638,-69.24192,73.36772122106069,649,0,0.241305547489
251,20121116_5.3Mw_21.51S_69.49W_61KM,2012-11-16 00:38:04.998394,5.3,-21.51,-69.49,interface,61.0,PB07,-21.7266,-69.88612,77.32614745617853,644,0,0.268780694817
252,20121116_5.3Mw_21.51S_69.49W_61KM,2012-11-16 00:38:04.998391,5.3,-21.51,-69.49,interface,61.0,PB03,-22.04764,-69.753265,89.49615086824696,711,0,0.262118258474
253,20121116_5.3Mw_21.51S_69.49W_61KM,2012-11-16 00:38:04.998391,5.3,-21.51,-69.49,interface,61.0,PB02,-21.31973,-69.89603,77.042099021722,746,0,0.572955495348
254,20121116_5.3Mw_21.51S_69.49W_61KM,2012-11-16 00:38:04.998392,5.3,-21.51,-69.49,interface,61.0,PB01,-21.043228,-69.487399,79.96663869249208,603,0,0.289647865497
255,20130101_5.1Mw_20.81S_69.67W_58KM,2013-01-01 03:51:11.998393,5.1,-20.81,-69.67,interface,58.0,PB01,-21.043228,-69.487399,66.27096870765693,603,0,0.196800548609
256,20130101_5.1Mw_20.81S_69.67W_58KM,2013-01-01 03:51:11.998393,5.1,-20.81,-69.67,interface,58.0,PB02,-21.31973,-69.89603,84.2855983300353,746,0,0.209051282954
257,20130113_5.5Mw_20.12S_69.31W_89KM,2013-01-13 21:23:26.998392,5.5,-20.12,-69.31,interface,89.0,PB08,-20.141083,-69.153496,90.5311558909971,742,0,0.322328952389
258,20130113_5.5Mw_20.12S_69.31W_89KM,2013-01-13 21:23:26.999997,5.5,-20.12,-69.31,interface,89.0,PB11,-19.761,-69.6558,103.98298497503988,1044,0,0.722903012132
259,20130113_5.5Mw_20.12S_69.31W_89KM,2013-01-13 21:23:26.998391,5.5,-20.12,-69.31,interface,89.0,PB01,-21.043228,-69.487399,136.76138682429843,603,0,0.246183262485
260,20130130_6.7Mw_28.18S_70.88W_52KM,2013-01-30 20:15:40.998300,6.7,-28.18,-70.88,interface,52.0,GO03,-27.5937,-70.2347,96.45056652766931,908,0,3.39429564826
261,20130302_5.1Mw_22.85S_70.38W_50KM,2013-03-02 11:42:01.998391,5.1,-22.85,-70.38,interface,50.0,PB15,-23.208325,-69.47092,112.92915349793164,532,0,0.452491801995
262,20130302_5.1Mw_22.85S_70.38W_50KM,2013-03-02 11:42:01.998391,5.1,-22.85,-70.38,interface,50.0,PB05,-22.85274,-70.20232,53.23404472273747,773,0,0.343951970752
263,20130710_5.7Mw_19.37S_69.52W_112KM,2013-07-10 14:32:12.000000,5.7,-19.37,-69.52,intraslab,112.0,MNMCX,-19.13108,-69.59553,115.35930294496724,693,0,0.410089608603
264,20130710_5.7Mw_19.37S_69.52W_112KM,2013-07-10 14:32:12.000000,5.7,-19.37,-69.52,intraslab,112.0,PB11,-19.761,-69.6558,120.91770875412772,1044,0,0.402354537649
265,20130710_5.7Mw_19.37S_69.52W_112KM,2013-07-10 14:32:11.998300,5.7,-19.37,-69.52,intraslab,112.0,GO01,-19.6686,-69.1942,121.69777549236197,973,0,0.403657809092
266,20130815_4.9Mw_32.51S_71.64W_48KM,2013-08-15 10:26:03.000000,4.9,-32.51,-71.64,interface,48.0,V08A,-33.0201,-71.5498,74.65957221720312,344,0,0.186873160666
267,20130823_5.7Mw_22.28S_68.86W_117KM,2013-08-23 08:34:04.998392,5.7,-22.28,-68.86,intraslab,117.0,PB15,-23.208325,-69.47092,167.89465199315956,532,0,0.429869473453
268,20130823_5.7Mw_22.28S_68.86W_117KM,2013-08-23 08:34:04.998392,5.7,-22.28,-68.86,intraslab,117.0,PB07,-21.7266,-69.88612,169.300395091969,644,0,0.350474394901
269,20130823_5.7Mw_22.28S_68.86W_117KM,2013-08-23 08:34:04.998391,5.7,-22.28,-68.86,intraslab,117.0,PB03,-22.04764,-69.753265,151.1045157849913,711,0,0.368262281601
270,20130823_5.7Mw_22.28S_68.86W_117KM,2013-08-23 08:34:04.998392,5.7,-22.28,-68.86,intraslab,117.0,PB02,-21.31973,-69.89603,190.95691030230927,746,0,0.221218779277
271,20130907_5.2Mw_19.62S_69.3W_100KM,2013-09-07 19:13:30.998300,5.2,-19.62,-69.3,interface,100.0,GO01,-19.6686,-69.1942,100.76217981270369,973,0,0.242536093867
272,20130924_4.2Mw_29.83S_71.32W_56KM,2013-09-24 17:07:23.000000,4.2,-29.83,-71.32,interface,56.0,C01O,-29.8772,-71.2379,56.7972264902218,447,0,0.14056558083
273,20130924_4.2Mw_29.83S_71.32W_56KM,2013-09-24 17:07:24.000000,4.2,-29.83,-71.32,interface,56.0,C06O,-29.9179,-71.2009,57.994159575614674,1000,0,0.14225692733
274,20130924_4.2Mw_29.83S_71.32W_56KM,2013-09-24 17:07:27.000000,4.2,-29.83,-71.32,interface,56.0,C09O,-29.5106,-71.2004,67.24047540938217,754,0,0.202185120069
275,20130929_5.2Mw_37.47S_73.75W_49KM,2013-09-29 03:40:03.000000,5.2,-37.47,-73.75,intraslab,49.0,C05O,-30.833,-71.258,772.7105600767197,451.51,0,0.359605667686
276,20130929_5.2Mw_37.47S_73.75W_49KM,2013-09-29 03:40:07.000000,5.2,-37.47,-73.75,intraslab,49.0,C11O,-30.6965,-70.9589,795.7215941270517,626,0,0.509155948524
277,20130929_5.2Mw_37.47S_73.75W_49KM,2013-09-29 03:40:49.000000,5.2,-37.47,-73.75,intraslab,49.0,CO02,-31.2037,-71.0003,741.225430671214,402,0,0.339374896081
278,20130929_5.2Mw_37.47S_73.75W_49KM,2013-09-29 03:40:04.000000,5.2,-37.47,-73.75,intraslab,49.0,C13O,-30.5793,-71.4946,793.67277288813,505,0,0.255609411837
279,20130929_5.5Mw_37.47S_73.88W_42KM,2013-09-29 23:23:15.000000,5.5,-37.47,-73.88,intraslab,42.0,BI03,-36.8438,-73.0258,111.10836154365606,269,0,0.387051664954
280,20131029_5Mw_30.7S_71.28W_46KM,2013-10-29 03:40:03.000000,5.0,-30.7,-71.28,interface,46.0,C05O,-30.833,-71.258,48.35136207260567,451.51,0,0.359605667686
281,20131029_5Mw_30.7S_71.28W_46KM,2013-10-29 03:40:07.000000,5.0,-30.7,-71.28,interface,46.0,C11O,-30.6965,-70.9589,55.33485750993246,626,0,0.509155948524
282,20131029_5Mw_30.7S_71.28W_46KM,2013-10-29 03:40:49.000000,5.0,-30.7,-71.28,interface,46.0,CO02,-31.2037,-71.0003,77.1629807728917,402,0,0.339374896081
283,20131029_5Mw_30.7S_71.28W_46KM,2013-10-29 03:40:04.000000,5.0,-30.7,-71.28,interface,46.0,C13O,-30.5793,-71.4946,52.16061569406595,505,0,0.255609411837
284,20131031_6.5Mw_30.37S_71.5W_52KM,2013-10-31 23:03:35.000000,6.5,-30.37,-71.5,interface,52.0,C12O,-31.398,-71.458,119.17294911309017,406.43,0,0.273464490145
285,20131031_6.5Mw_30.37S_71.5W_52KM,2013-10-31 23:03:11.000000,6.5,-30.37,-71.5,interface,52.0,C10O,-30.2339,-71.0816,65.08280538354256,1000,0,0.775540173736
286,20131031_6.5Mw_30.37S_71.5W_52KM,2013-10-31 23:03:22.000000,6.5,-30.37,-71.5,interface,52.0,C03O,-30.037,-70.71,91.49743370235011,399.56,0,0.436681997385
287,20131031_6.5Mw_30.37S_71.5W_52KM,2013-10-31 23:03:13.000000,6.5,-30.37,-71.5,interface,52.0,C11O,-30.6965,-70.9589,76.63501750943465,626,0,0.788347653192
288,20131031_6.5Mw_30.37S_71.5W_52KM,2013-10-31 23:03:57.998299,6.5,-30.37,-71.5,interface,52.0,GO04,-30.1727,-70.7993,81.62131893174907,405,0,0.608796345852
289,20131031_6.5Mw_30.37S_71.5W_52KM,2013-10-31 23:03:15.000000,6.5,-30.37,-71.5,interface,52.0,C01O,-29.8772,-71.2379,74.55632539373477,447,0,0.501836721347
290,20131031_6.5Mw_30.37S_71.5W_52KM,2013-10-31 23:03:19.000000,6.5,-30.37,-71.5,interface,52.0,C05O,-30.833,-71.258,72.97778200679373,451.51,0,0.541953766031
291,20131031_6.5Mw_30.37S_71.5W_52KM,2013-10-31 23:03:58.000000,6.5,-30.37,-71.5,interface,52.0,CO02,-31.2037,-71.0003,109.15839380005308,402,0,1.10853594484
292,20131031_6.5Mw_30.37S_71.5W_52KM,2013-10-31 23:03:30.000000,6.5,-30.37,-71.5,interface,52.0,C09O,-29.5106,-71.2004,105.87341035289344,754,0,0.311538404452
293,20131031_6.5Mw_30.37S_71.5W_52KM,2013-10-31 23:03:44.000000,6.5,-30.37,-71.5,interface,52.0,C07O,-31.6336,-71.1675,146.0443619298355,654,0,0.238577955715
294,20131031_6.5Mw_30.37S_71.5W_52KM,2013-10-31 23:03:11.000000,6.5,-30.37,-71.5,interface,52.0,C13O,-30.5793,-71.4946,51.709543638393775,505,0,1.10638126086
295,20131031_6.5Mw_30.37S_71.5W_52KM,2013-10-31 23:03:19.000000,6.5,-30.37,-71.5,interface,52.0,C04O,-29.9424,-71.2632,69.31556074803703,475,0,0.48887538149
296,20131115_4.2Mw_30.54S_71.61W_23KM,2013-11-15 10:03:05.000000,4.2,-30.54,-71.61,interface,23.0,C13O,-30.5793,-71.4946,25.873230402054382,505,0,0.131894009481
297,20131204_5.5Mw_24.58S_69.3W_72KM,2013-12-04 05:39:32.998299,5.5,-24.58,-69.3,interface,72.0,GO02,-25.1626,-69.5904,101.06103569080177,820,0,0.481060360274
298,20131204_5.5Mw_24.58S_69.3W_72KM,2013-12-04 05:39:19.000000,5.5,-24.58,-69.3,interface,72.0,A10F,-25.4111,-70.4843,167.16564151126153,1000,0,0.216010908956
299,20131215_4.5Mw_30.77S_71.39W_35KM,2013-12-15 08:00:25.000000,4.5,-30.77,-71.39,interface,35.0,C10O,-30.2339,-71.0816,75.03405053099003,1000,0,0.168322267254
300,20131215_4.5Mw_30.77S_71.39W_35KM,2013-12-15 08:00:17.000000,4.5,-30.77,-71.39,interface,35.0,C13O,-30.5793,-71.4946,42.103468939913306,505,0,0.136269505288
301,20131222_5Mw_32.87S_70.62W_95KM,2013-12-22 01:52:57.000000,5.0,-32.87,-70.62,interface,95.0,R12M,-33.3887,-70.6216,111.07771545152642,267,0,0.160974219182
302,20131222_5Mw_32.87S_70.62W_95KM,2013-12-22 01:52:55.000000,5.0,-32.87,-70.62,interface,95.0,V15A,-32.9149,-71.2326,111.08388367608507,323,0,0.427547394619
303,20131222_5Mw_32.87S_70.62W_95KM,2013-12-22 01:52:56.000000,5.0,-32.87,-70.62,interface,95.0,R07M,-33.3673,-70.6898,110.02706834253176,271,0,0.442752557481
304,20131222_5Mw_32.87S_70.62W_95KM,2013-12-22 01:52:59.000000,5.0,-32.87,-70.62,interface,95.0,R18M,-33.5084,-70.7488,119.06541837273336,370,0,0.129299953328
305,20140102_4.9Mw_32.96S_71.39W_44KM,2014-01-02 22:39:03.000000,4.9,-32.96,-71.39,interface,44.0,V14A,-33.321,-71.41,59.518709040528265,240.9,0,0.133611174851
306,20140102_4.9Mw_32.96S_71.39W_44KM,2014-01-02 22:38:52.000000,4.9,-32.96,-71.39,interface,44.0,V15A,-32.9149,-71.2326,46.65278189173633,323,0,0.545764950582
307,20140107_5.2Mw_20.99S_69.73W_97KM,2014-01-07 03:43:22.998299,5.2,-20.99,-69.73,intraslab,97.0,GO01,-19.6686,-69.1942,184.2000539563735,973,0,0.213516394416
308,20140107_5.2Mw_20.99S_69.73W_97KM,2014-01-07 03:43:23.000000,5.2,-20.99,-69.73,intraslab,97.0,TA01,-20.5656,-70.1807,117.54921633873937,1339,0,0.255297706575
309,20140129_5.3Mw_18.56S_69.6W_122KM,2014-01-29 10:01:49.000000,5.3,-18.56,-69.6,intraslab,122.0,MNMCX,-19.13108,-69.59553,137.40065208967476,693,0,0.219745272525
310,20140129_5.3Mw_18.56S_69.6W_122KM,2014-01-29 10:01:40.000000,5.3,-18.56,-69.6,intraslab,122.0,T10A,-19.9955,-69.7671,201.05923178988323,336,0,0.189704597926
311,20140129_5.3Mw_18.56S_69.6W_122KM,2014-01-29 10:01:27.000000,5.3,-18.56,-69.6,intraslab,122.0,T11A,-19.3123779,-69.4272919,148.81172081048592,346,0,0.420332411609
312,20140205_5.2Mw_21.38S_69.52W_39KM,2014-02-05 11:51:04.998393,5.2,-21.38,-69.52,crustal,39.0,PB07,-21.7266,-69.88612,66.59162130081612,644,0,0.327134759044
313,20140205_5.2Mw_21.38S_69.52W_39KM,2014-02-05 11:50:48.000000,5.2,-21.38,-69.52,crustal,39.0,T10A,-19.9955,-69.7671,160.2984231368743,336,0,0.176036912721
314,20140205_5.2Mw_21.38S_69.52W_39KM,2014-02-05 11:51:04.998393,5.2,-21.38,-69.52,crustal,39.0,PB01,-21.043228,-69.487399,54.082958315287755,603,0,0.770094951611
315,20140205_5.2Mw_21.38S_69.52W_39KM,2014-02-05 11:51:04.998393,5.2,-21.38,-69.52,crustal,39.0,PB02,-21.31973,-69.89603,55.553679736225554,746,0,0.523290758625
316,20140205_5.2Mw_21.38S_69.52W_39KM,2014-02-05 11:50:23.000000,5.2,-21.38,-69.52,crustal,39.0,T13A,-20.4963,-69.3375,107.06284933155156,378,0,0.27311720127
317,20140205_5.2Mw_21.38S_69.52W_39KM,2014-02-05 11:50:47.000000,5.2,-21.38,-69.52,crustal,39.0,T05A,-20.2098,-70.1502,150.34099421974096,1020,0,0.139132035907
318,20140205_5.2Mw_21.38S_69.52W_39KM,2014-02-05 11:50:41.000000,5.2,-21.38,-69.52,crustal,39.0,T07A,-20.2563,-69.786,133.31846714840057,326,0,0.267168630346
319,20140205_5.2Mw_21.38S_69.52W_39KM,2014-02-05 11:50:45.000000,5.2,-21.38,-69.52,crustal,39.0,T01A,-20.2729,-70.1223,143.06867269184863,339,0,0.227746439072
320,20140205_5.2Mw_21.38S_69.52W_39KM,2014-02-05 11:51:05.000000,5.2,-21.38,-69.52,crustal,39.0,PATCX,-20.82071,-70.15288,98.37217493250547,559,0,0.21918583822
321,20140205_5.2Mw_21.38S_69.52W_39KM,2014-02-05 11:50:48.000000,5.2,-21.38,-69.52,crustal,39.0,T12A,-20.0706844,-69.2172089,153.36215968334875,732,0,0.214735801399
322,20140212_5.2Mw_34.77S_71.66W_27KM,2014-02-12 13:34:52.000000,5.2,-34.77,-71.66,crustal,27.0,M14L,-35.3328,-72.4283,97.66930715006711,257,0,0.10730888224
323,20140212_5.7Mw_22.35S_68.81W_99KM,2014-02-12 11:43:09.998391,5.7,-22.35,-68.81,interface,99.0,PB03,-22.04764,-69.753265,142.7404385745685,711,0,0.199425260411
324,20140212_5.7Mw_22.35S_68.81W_99KM,2014-02-12 11:43:09.998391,5.7,-22.35,-68.81,interface,99.0,PB15,-23.208325,-69.47092,153.08875491313773,532,0,0.494421021039
325,20140223_5.3Mw_23.85S_68.78W_105KM,2014-02-23 23:40:01.998393,5.3,-23.85,-68.78,intraslab,105.0,PB15,-23.208325,-69.47092,145.11976106274855,532,0,0.328195746613
326,20140302_4.2Mw_19.16S_69.33W_109KM,2014-03-02 20:54:42.000000,4.2,-19.16,-69.33,interface,109.0,T11A,-19.3123779,-69.4272919,110.76153635094487,346,0,0.157045755825
327,20140314_4.9Mw_19.46S_69.45W_92KM,2014-03-14 15:30:42.000000,4.9,-19.46,-69.45,interface,92.0,T11A,-19.3123779,-69.4272919,93.47857448804059,346,0,0.430824913697
328,20140316_6.7Mw_19.96S_70.81W_20KM,2014-03-16 21:15:51.000000,6.7,-19.96,-70.81,interface,20.0,T09A,-19.5957,-70.2108,62.1042346404268,1584,0,0.541437210239
329,20140316_6.7Mw_19.96S_70.81W_20KM,2014-03-16 21:15:54.000000,6.7,-19.96,-70.81,interface,20.0,T08A,-20.2702,-70.0941,69.43779313512418,987,0,0.265063104098
330,20140316_6.7Mw_19.96S_70.81W_20KM,2014-03-16 21:16:29.000000,6.7,-19.96,-70.81,interface,20.0,HMBCX,-20.2782,-69.8879,88.78261721148364,743,0,0.247247350921
331,20140316_6.7Mw_19.96S_70.81W_20KM,2014-03-16 21:16:28.999998,6.7,-19.96,-70.81,interface,20.0,PB11,-19.761,-69.6558,110.916743498944,1044,0,0.417935084544
332,20140316_6.7Mw_19.96S_70.81W_20KM,2014-03-16 21:16:29.000000,6.7,-19.96,-70.81,interface,20.0,TA01,-20.5656,-70.1807,81.6551029996918,1339,0,0.271336071875
333,20140316_6.7Mw_19.96S_70.81W_20KM,2014-03-16 21:16:29.000000,6.7,-19.96,-70.81,interface,20.0,PSGCX,-19.5972,-70.1231,69.62487819178804,1639,0,0.287507160576
334,20140316_6.7Mw_19.96S_70.81W_20KM,2014-03-16 21:16:28.998300,6.7,-19.96,-70.81,interface,20.0,GO01,-19.6686,-69.1942,159.44050478554593,973,0,0.493092894976
335,20140316_6.7Mw_19.96S_70.81W_20KM,2014-03-16 21:16:28.999998,6.7,-19.96,-70.81,interface,20.0,AP01,-18.3708,-70.3419,169.2398554235098,355,0,0.259433695906
336,20140316_6.7Mw_19.96S_70.81W_20KM,2014-03-16 21:15:51.000000,6.7,-19.96,-70.81,interface,20.0,T03A,-20.2303,-70.1459,63.18406079827634,613,0,0.546030777413
337,20140316_6.7Mw_19.96S_70.81W_20KM,2014-03-16 21:15:50.000000,6.7,-19.96,-70.81,interface,20.0,T07A,-20.2563,-69.786,97.9064563926098,326,0,0.634987500983
338,20140316_6.7Mw_19.96S_70.81W_20KM,2014-03-16 21:16:17.000000,6.7,-19.96,-70.81,interface,20.0,T13A,-20.4963,-69.3375,149.59795003375143,378,0,0.408526632449
339,20140316_6.7Mw_19.96S_70.81W_20KM,2014-03-16 21:15:52.000000,6.7,-19.96,-70.81,interface,20.0,T06A,-20.2142,-70.1379,63.28931871922548,1263,0,0.210350910667
340,20140317_4.5Mw_19.99S_70.75W_22KM,2014-03-17 00:11:31.000000,4.5,-19.99,-70.75,interface,22.0,T03A,-20.2303,-70.1459,71.96846494784886,613,0,0.162881278926
341,20140317_4.5Mw_20.01S_70.83W_9KM,2014-03-17 05:44:09.000000,4.5,-20.01,-70.83,interface,9.0,T07A,-20.2563,-69.786,112.86454571301365,326,0,0.105358335473
342,20140317_5.1Mw_19.91S_70.91W_32KM,2014-03-17 11:11:52.000000,5.1,-19.91,-70.91,interface,32.0,T07A,-20.2563,-69.786,127.71768539126002,326,0,0.143862931719
343,20140317_5.1Mw_19.99S_70.89W_36KM,2014-03-17 05:19:11.000000,5.1,-19.99,-70.89,interface,36.0,T07A,-20.2563,-69.786,124.45709896215835,326,0,0.264514198932
344,20140317_5.9Mw_19.93S_70.94W_28KM,2014-03-17 05:11:34.000000,5.9,-19.93,-70.94,interface,28.0,TA01,-20.5656,-70.1807,109.68255217348279,1339,0,0.211936819161
345,20140317_5.9Mw_19.93S_70.94W_28KM,2014-03-17 05:10:59.000000,5.9,-19.93,-70.94,interface,28.0,T03A,-20.2303,-70.1459,93.72246193498961,613,0,0.351725750356
346,20140317_5.9Mw_19.93S_70.94W_28KM,2014-03-17 05:11:33.998299,5.9,-19.93,-70.94,interface,28.0,GO01,-19.6686,-69.1942,187.31513285986114,973,0,0.198887363913
347,20140317_5.9Mw_19.93S_70.94W_28KM,2014-03-17 05:11:33.998393,5.9,-19.93,-70.94,interface,28.0,PB02,-21.31973,-69.89603,190.540625353818,746,0,0.251048187408
348,20140317_5.9Mw_19.93S_70.94W_28KM,2014-03-17 05:11:10.000000,5.9,-19.93,-70.94,interface,28.0,T09A,-19.5957,-70.2108,89.37681057384835,1584,0,0.124693097261
349,20140317_5.9Mw_19.93S_70.94W_28KM,2014-03-17 05:11:03.000000,5.9,-19.93,-70.94,interface,28.0,T08A,-20.2702,-70.0941,100.14293433791326,987,0,0.222881769853
350,20140317_5.9Mw_19.93S_70.94W_28KM,2014-03-17 05:11:25.000000,5.9,-19.93,-70.94,interface,28.0,T13A,-20.4963,-69.3375,181.03463545891697,378,0,0.266304374172
351,20140317_5.9Mw_19.93S_70.94W_28KM,2014-03-17 05:11:02.000000,5.9,-19.93,-70.94,interface,28.0,T06A,-20.2142,-70.1379,93.86041502469044,1263,0,0.16933052556
352,20140317_5.9Mw_19.93S_70.94W_28KM,2014-03-17 05:10:58.000000,5.9,-19.93,-70.94,interface,28.0,T07A,-20.2563,-69.786,129.04592009202452,326,0,0.747814993112
353,20140318_5.8Mw_19.96S_70.95W_39KM,2014-03-18 21:26:37.000000,5.8,-19.96,-70.95,interface,39.0,T13A,-20.4963,-69.3375,182.8966266918142,378,0,0.209294073279
354,20140318_5.8Mw_19.96S_70.95W_39KM,2014-03-18 21:26:14.000000,5.8,-19.96,-70.95,interface,39.0,T03A,-20.2303,-70.1459,97.38998015033907,613,0,0.131249367056
355,20140318_5.8Mw_19.96S_70.95W_39KM,2014-03-18 21:26:22.000000,5.8,-19.96,-70.95,interface,39.0,T07A,-20.2563,-69.786,131.95412684088114,326,0,0.332693010979
356,20140318_5Mw_20.02S_70.84W_19KM,2014-03-18 21:32:43.000000,5.0,-20.02,-70.84,interface,19.0,T07A,-20.2563,-69.786,114.83869628950275,326,0,0.107043963312
357,20140320_5.4Mw_24.03S_69.25W_96KM,2014-03-20 18:41:32.998391,5.4,-24.03,-69.25,intraslab,96.0,PB15,-23.208325,-69.47092,134.21130773630313,532,0,0.290456133947
358,20140322_5.3Mw_19.82S_70.88W_20KM,2014-03-22 13:14:37.000000,5.3,-19.82,-70.88,interface,20.0,T07A,-20.2563,-69.786,125.81679603927824,326,0,0.123077193001
359,20140322_5.3Mw_19.82S_70.88W_20KM,2014-03-22 13:14:27.000000,5.3,-19.82,-70.88,interface,20.0,T03A,-20.2303,-70.1459,91.423008558376,613,0,0.119934175697
360,20140322_5.8Mw_19.84S_71.38W_31KM,2014-03-22 12:59:34.000000,5.8,-19.84,-71.38,interface,31.0,T08A,-20.2702,-70.0941,146.03080902145192,987,0,0.204647425344
361,20140322_5.8Mw_19.84S_71.38W_31KM,2014-03-22 12:59:29.000000,5.8,-19.84,-71.38,interface,31.0,T03A,-20.2303,-70.1459,139.61821236968632,613,0,0.321656331788
362,20140322_5.8Mw_19.84S_71.38W_31KM,2014-03-22 12:59:32.000000,5.8,-19.84,-71.38,interface,31.0,T06A,-20.2142,-70.1379,139.86409610334306,1263,0,0.182802490356
363,20140322_5.8Mw_19.84S_71.38W_31KM,2014-03-22 12:59:26.000000,5.8,-19.84,-71.38,interface,31.0,T09A,-19.5957,-70.2108,129.2621966292444,1584,0,0.132582063763
364,20140322_5.8Mw_19.84S_71.38W_31KM,2014-03-22 12:59:25.000000,5.8,-19.84,-71.38,interface,31.0,T07A,-20.2563,-69.786,175.75369492151327,326,0,0.306982107209
365,20140322_5.8Mw_19.84S_71.38W_31KM,2014-03-22 12:59:55.000000,5.8,-19.84,-71.38,interface,31.0,T13A,-20.4963,-69.3375,227.69373284522248,378,0,0.15725886718
366,20140323_6.1Mw_19.79S_70.94W_33KM,2014-03-23 18:19:60.000000,6.1,-19.79,-70.94,interface,33.0,HMBCX,-20.2782,-69.8879,119.30563618646616,743,0,0.2147275381
367,20140323_6.1Mw_19.79S_70.94W_33KM,2014-03-23 18:19:60.000000,6.1,-19.79,-70.94,interface,33.0,PB11,-19.761,-69.6558,130.60458137468302,1044,0,0.443666173703
368,20140323_6.1Mw_19.79S_70.94W_33KM,2014-03-23 18:19:59.998300,6.1,-19.79,-70.94,interface,33.0,GO01,-19.6686,-69.1942,178.17248884539512,973,0,0.536071467714
