,Earthquake Name,Start time record,Magnitude [Mw],Hypocenter latitude,Hypocenter longitude,Event type,Depth [km],Station name,Station latitude,Station longitude,Distance of rupture [km],Vs30 [m/s],Azimut [o],PGA (from 3 components) [g]
860,20140505_4.8Mw_19.86S_70.87W_42KM,2014-05-05 22:51:54.000000,4.8,-19.86,-70.87,interface,42.0,T01A,-20.2729,-70.1223,99.88175258880219,339,0,0.0642224248242
861,20140505_5.1Mw_20.23S_68.19W_171KM,2014-05-05 13:38:34.000000,5.1,-20.23,-68.19,intraslab,171.0,T01A,-20.2729,-70.1223,264.59155446908113,339,0,0.0687232010361
862,20140505_5.1Mw_20.23S_68.19W_171KM,2014-05-05 13:38:27.000000,5.1,-20.23,-68.19,intraslab,171.0,T10A,-19.9955,-69.7671,238.9836222296633,336,0,0.094662321182
863,20140505_5.1Mw_20.23S_68.19W_171KM,2014-05-05 13:38:29.000000,5.1,-20.23,-68.19,intraslab,171.0,T11A,-19.3123779,-69.4272919,237.4299602240117,346,0,0.0669245701134
864,20140505_5.1Mw_20.2S_70.74W_41KM,2014-05-05 11:20:47.000000,5.1,-20.2,-70.74,interface,41.0,T09A,-19.5957,-70.2108,96.02248795799652,1584,0,0.0573580083142
865,20140505_5.1Mw_20.2S_70.74W_41KM,2014-05-05 11:20:51.000000,5.1,-20.2,-70.74,interface,41.0,T10A,-19.9955,-69.7671,112.03057581555161,336,0,0.160028986879
866,20140505_5.1Mw_20.2S_70.74W_41KM,2014-05-05 11:21:07.000000,5.1,-20.2,-70.74,interface,41.0,T11A,-19.3123779,-69.4272919,174.01407131220193,346,0,0.223267081423
867,20140505_5.1Mw_20.2S_70.74W_41KM,2014-05-05 11:20:49.000000,5.1,-20.2,-70.74,interface,41.0,T07A,-20.2563,-69.786,107.96880110764009,326,0,0.075116064697
868,20140507_4.4Mw_19.57S_70.41W_34KM,2014-05-07 03:56:23.000000,4.4,-19.57,-70.41,interface,34.0,A04P,-18.8337,-69.7445,112.68972015843384,483,0,0.0834223770867
869,20140507_4.4Mw_19.57S_70.41W_34KM,2014-05-07 03:56:16.000000,4.4,-19.57,-70.41,interface,34.0,T01A,-20.2729,-70.1223,90.12128705376095,339,0,0.0815343523838
870,20140507_4.4Mw_19.57S_70.41W_34KM,2014-05-07 03:56:22.000000,4.4,-19.57,-70.41,interface,34.0,T11A,-19.3123779,-69.4272919,112.37121925106713,346,0,0.113038851656
871,20140507_4.4Mw_19.57S_70.41W_34KM,2014-05-07 03:55:57.000000,4.4,-19.57,-70.41,interface,34.0,T09A,-19.5957,-70.2108,40.00273640726062,1584,0,0.456052866035
872,20140507_4.5Mw_22.3S_68.79W_118KM,2014-05-07 15:55:59.000000,4.5,-22.3,-68.79,intraslab,118.0,A05F,-22.8914,-69.3207,145.56229959652728,1000,0,0.153316882705
873,20140507_4.8Mw_19.96S_70.98W_33KM,2014-05-07 13:26:35.000000,4.8,-19.96,-70.98,interface,33.0,T01A,-20.2729,-70.1223,101.68328117042807,339,0,0.0687462411781
874,20140507_4.8Mw_19.96S_70.98W_33KM,2014-05-07 13:26:35.000000,4.8,-19.96,-70.98,interface,33.0,T03A,-20.2303,-70.1459,97.93002857661803,613,0,0.0668490048974
875,20140507_4.8Mw_19.96S_70.98W_33KM,2014-05-07 13:26:44.000000,4.8,-19.96,-70.98,interface,33.0,T07A,-20.2563,-69.786,133.24225424515117,326,0,0.0694856889085
876,20140509_4.1Mw_20.19S_70.43W_34KM,2014-05-09 21:09:09.000000,4.1,-20.19,-70.43,interface,34.0,T08A,-20.2702,-70.0941,49.67046580922997,987,0,0.0918321858139
877,20140509_4.1Mw_20.19S_70.43W_34KM,2014-05-09 21:09:08.000000,4.1,-20.19,-70.43,interface,34.0,T03A,-20.2303,-70.1459,45.348884812311454,613,0,0.113179312471
878,20140509_4.1Mw_20.19S_70.43W_34KM,2014-05-09 21:09:08.000000,4.1,-20.19,-70.43,interface,34.0,T01A,-20.2729,-70.1223,47.7099194180435,339,0,0.115284256944
879,20140509_4.8Mw_34.71S_71.69W_44KM,2014-05-09 11:44:14.000000,4.8,-34.71,-71.69,interface,44.0,M04L,-35.282,-71.258,86.70794347684944,324.64,0,0.172247885998
880,20140509_4.8Mw_34.71S_71.69W_44KM,2014-05-09 11:44:10.000000,4.8,-34.71,-71.69,interface,44.0,M03L,-34.9756,-71.2322,67.59594763789872,715,0,0.185105545646
881,20140510_4.6Mw_20.17S_69.23W_95KM,2014-05-10 03:11:32.000000,4.6,-20.17,-69.23,interface,95.0,T10A,-19.9955,-69.7671,112.0489185931187,336,0,0.188960469933
882,20140510_4.6Mw_20.17S_69.23W_95KM,2014-05-10 03:11:38.000000,4.6,-20.17,-69.23,interface,95.0,T03A,-20.2303,-70.1459,135.03445298720436,613,0,0.073817227707
883,20140510_4.6Mw_20.17S_69.23W_95KM,2014-05-10 03:11:39.000000,4.6,-20.17,-69.23,interface,95.0,T11A,-19.3123779,-69.4272919,135.9149048683146,346,0,0.0898199289906
884,20140510_4.6Mw_20.17S_69.23W_95KM,2014-05-10 03:11:37.000000,4.6,-20.17,-69.23,interface,95.0,T02A,-20.2525,-70.1181,133.11509609645427,269,0,0.170528745197
885,20140510_4.6Mw_20.17S_69.23W_95KM,2014-05-10 03:11:30.000000,4.6,-20.17,-69.23,interface,95.0,T13A,-20.4963,-69.3375,102.23700071373496,378,0,0.128420261343
886,20140510_4.6Mw_20.17S_69.23W_95KM,2014-05-10 03:11:37.000000,4.6,-20.17,-69.23,interface,95.0,T08A,-20.2702,-70.0941,131.52797355872397,987,0,0.0930929568766
887,20140510_4.6Mw_20.17S_69.23W_95KM,2014-05-10 03:11:31.000000,4.6,-20.17,-69.23,interface,95.0,T07A,-20.2563,-69.786,111.76692846799318,326,0,0.141373295201
888,20140510_4.6Mw_20.17S_69.23W_95KM,2014-05-10 03:11:37.000000,4.6,-20.17,-69.23,interface,95.0,T01A,-20.2729,-70.1223,133.58083237247985,339,0,0.120989744182
889,20140510_4.6Mw_20.17S_69.23W_95KM,2014-05-10 03:11:28.000000,4.6,-20.17,-69.23,interface,95.0,T12A,-20.0706844,-69.2172089,95.63977588206326,732,0,0.217464126797
890,20140511_4Mw_18.94S_69.47W_107KM,2014-05-11 23:13:56.000000,4.0,-18.94,-69.47,interface,107.0,A04P,-18.8337,-69.7445,111.44555539095427,483,0,0.0904789318174
891,20140512_4.3Mw_29.63S_71.23W_64KM,2014-05-12 16:26:36.000000,4.3,-29.63,-71.23,intraslab,64.0,C09O,-29.5106,-71.2004,65.40980018574382,754,0,0.165679527134
892,20140512_4.3Mw_29.63S_71.23W_64KM,2014-05-12 16:26:44.000000,4.3,-29.63,-71.23,intraslab,64.0,C01O,-29.8772,-71.2379,69.6149223438637,447,0,0.103291008469
893,20140512_4.6Mw_20.65S_70.92W_36KM,2014-05-12 11:53:56.000000,4.6,-20.65,-70.92,interface,36.0,T01A,-20.2729,-70.1223,99.85288798822295,339,0,0.0868928911292
894,20140514_5.4Mw_19.68S_71.19W_37KM,2014-05-14 05:51:27.000000,5.4,-19.68,-71.19,intraslab,37.0,T02A,-20.2525,-70.1181,134.0473566322182,269,0,0.0776276344623
895,20140514_5.4Mw_19.68S_71.19W_37KM,2014-05-14 05:51:40.000000,5.4,-19.68,-71.19,intraslab,37.0,T11A,-19.3123779,-69.4272919,193.08030097555712,346,0,0.0852218942283
896,20140514_5.8Mw_22.77S_66.86W_245KM,2014-05-14 03:39:14.000000,5.8,-22.77,-66.86,intraslab,245.0,T10A,-19.9955,-69.7671,495.2604272510538,336,0,0.0763076743551
897,20140514_5.8Mw_22.77S_66.86W_245KM,2014-05-14 03:38:53.000000,5.8,-22.77,-66.86,intraslab,245.0,A07F,-21.628,-69.551,391.1658822690098,N/A,N/A,0.0835849693758
898,20140514_5.8Mw_22.77S_66.86W_245KM,2014-05-14 03:39:21.000000,5.8,-22.77,-66.86,intraslab,245.0,T02A,-20.2525,-70.1181,501.67517077358116,269,0,0.0599759931592
899,20140514_5.8Mw_22.77S_66.86W_245KM,2014-05-14 03:38:49.000000,5.8,-22.77,-66.86,intraslab,245.0,A05F,-22.8914,-69.3207,352.16595533260147,1000,0,0.26122429238
900,20140515_4.2Mw_32.14S_71.76W_19KM,2014-05-15 13:27:45.000000,4.2,-32.14,-71.76,interface,19.0,V02A,-33.0231,-71.5178,102.3034461021275,596,0,0.0637405582957
901,20140516_5.5Mw_23.49S_68.86W_111KM,2014-05-16 17:08:31.998392,5.5,-23.49,-68.86,intraslab,111.0,PB15,-23.208325,-69.47092,131.14878343632316,532,0,0.75542053866
902,20140516_5.5Mw_23.49S_68.86W_111KM,2014-05-16 17:08:31.998392,5.5,-23.49,-68.86,intraslab,111.0,PB06,-22.705833,-69.571728,158.68223709396955,736,0,0.221460001874
903,20140516_5.5Mw_23.5S_68.85W_114KM,2014-05-16 17:07:51.000000,5.5,-23.5,-68.85,intraslab,114.0,A08F,-23.186,-68.006,147.15459987022507,482.66,0,0.527331169338
904,20140516_5.5Mw_23.5S_68.85W_114KM,2014-05-16 17:08:07.000000,5.5,-23.5,-68.85,intraslab,114.0,A07F,-21.628,-69.551,247.32008514118147,N/A,N/A,0.109775790947
905,20140516_5.5Mw_23.5S_68.85W_114KM,2014-05-16 17:08:20.000000,5.5,-23.5,-68.85,intraslab,114.0,A06F,-22.344,-69.658,190.40613046625543,294.68,0,0.0817872791495
906,20140516_5.5Mw_23.5S_68.85W_114KM,2014-05-16 17:07:53.000000,5.5,-23.5,-68.85,intraslab,114.0,A05F,-22.8914,-69.3207,140.9601559478054,1000,0,1.06244082941
907,20140517_4.4Mw_19.95S_70.93W_31KM,2014-05-17 09:22:51.000000,4.4,-19.95,-70.93,interface,31.0,T07A,-20.2563,-69.786,128.14746881395988,326,0,0.0838124963936
908,20140517_4.6Mw_19.96S_70.98W_33KM,2014-05-17 10:17:37.000000,4.6,-19.96,-70.98,interface,33.0,T07A,-20.2563,-69.786,133.24225424515117,326,0,0.0853351266707
909,20140517_4.6Mw_19.96S_70.98W_33KM,2014-05-17 10:17:28.000000,4.6,-19.96,-70.98,interface,33.0,T01A,-20.2729,-70.1223,101.68328117042807,339,0,0.0693741661795
910,20140517_4.6Mw_19.96S_70.98W_33KM,2014-05-17 10:17:32.000000,4.6,-19.96,-70.98,interface,33.0,T02A,-20.2525,-70.1181,101.29213558802901,269,0,0.0561972068501
911,20140517_5.5Mw_20S_70.97W_37KM,2014-05-17 09:10:28.000000,5.5,-20.0,-70.97,interface,37.0,T07A,-20.2563,-69.786,132.28361280378982,326,0,0.363928811987
912,20140517_5.5Mw_20S_70.97W_37KM,2014-05-17 09:10:28.000000,5.5,-20.0,-70.97,interface,37.0,T10A,-19.9955,-69.7671,131.21792086064912,336,0,0.136297306673
913,20140517_5.5Mw_20S_70.97W_37KM,2014-05-17 09:10:33.000000,5.5,-20.0,-70.97,interface,37.0,T03A,-20.2303,-70.1459,97.16969656122552,613,0,0.128798678405
914,20140517_5.5Mw_20S_70.97W_37KM,2014-05-17 09:10:38.000000,5.5,-20.0,-70.97,interface,37.0,T11A,-19.3123779,-69.4272919,182.63118120602311,346,0,0.0875549444014
915,20140517_5.5Mw_20S_70.97W_37KM,2014-05-17 09:10:30.000000,5.5,-20.0,-70.97,interface,37.0,T02A,-20.2525,-70.1181,100.41890647410183,269,0,0.194057848214
916,20140517_5.5Mw_20S_70.97W_37KM,2014-05-17 09:10:37.000000,5.5,-20.0,-70.97,interface,37.0,T08A,-20.2702,-70.0941,103.20650889275254,987,0,0.056505830261
917,20140517_5.5Mw_20S_70.97W_37KM,2014-05-17 09:11:04.000000,5.5,-20.0,-70.97,interface,37.0,A05P,-18.4863,-70.3005,185.48083022263376,446,0,0.0642541933792
918,20140517_5.5Mw_20S_70.97W_37KM,2014-05-17 09:10:34.000000,5.5,-20.0,-70.97,interface,37.0,T04A,-20.2391,-70.1333,98.63753042973737,1305,0,0.0648536081859
919,20140517_5.5Mw_20S_70.97W_37KM,2014-05-17 09:10:34.000000,5.5,-20.0,-70.97,interface,37.0,T06A,-20.2142,-70.1379,97.47062286956509,1263,0,0.0941756859552
920,20140517_5.5Mw_20S_70.97W_37KM,2014-05-17 09:10:57.000000,5.5,-20.0,-70.97,interface,37.0,T13A,-20.4963,-69.3375,183.01561677412974,378,0,0.0982858906336
921,20140517_5.5Mw_20S_70.97W_37KM,2014-05-17 09:10:33.000000,5.5,-20.0,-70.97,interface,37.0,T05A,-20.2098,-70.1502,96.24513499875407,1020,0,0.0807639086311
922,20140519_4Mw_32.81S_71.15W_60KM,2014-05-19 18:10:17.000000,4.0,-32.81,-71.15,interface,60.0,V18A,-33.0518,-71.3383,68.04017614687378,492,0,0.114888414943
923,20140519_4Mw_32.81S_71.15W_60KM,2014-05-19 18:10:18.000000,4.0,-32.81,-71.15,interface,60.0,V02A,-33.0231,-71.5178,73.0955741921319,596,0,0.120619577031
924,20140521_5.6Mw_30.45S_71.31W_36KM,2014-05-21 09:00:04.000000,5.6,-30.45,-71.31,interface,36.0,C10O,-30.2339,-71.0816,48.47679684551833,1000,0,1.15339867227
925,20140521_5.6Mw_30.45S_71.31W_36KM,2014-05-21 09:00:08.000000,5.6,-30.45,-71.31,interface,36.0,C11O,-30.6965,-70.9589,56.333476097992005,626,0,0.433866057962
926,20140521_5.6Mw_30.45S_71.31W_36KM,2014-05-21 09:00:52.998300,5.6,-30.45,-71.31,interface,36.0,GO04,-30.1727,-70.7993,68.2249437908128,405,0,0.720717811581
927,20140521_5.6Mw_30.45S_71.31W_36KM,2014-05-21 09:00:15.000000,5.6,-30.45,-71.31,interface,36.0,C01O,-29.8772,-71.2379,73.34095970585653,447,0,0.187545120932
928,20140521_5.6Mw_30.45S_71.31W_36KM,2014-05-21 09:00:53.000000,5.6,-30.45,-71.31,interface,36.0,CO03,-30.8389,-70.6891,81.84906038218352,704,0,0.241482725744
929,20140521_5.6Mw_30.45S_71.31W_36KM,2014-05-21 09:00:53.000000,5.6,-30.45,-71.31,interface,36.0,CO02,-31.2037,-71.0003,95.7262462326126,402,0,0.480831032793
930,20140521_5.6Mw_30.45S_71.31W_36KM,2014-05-21 09:00:24.000000,5.6,-30.45,-71.31,interface,36.0,C09O,-29.5106,-71.2004,110.65009646414875,754,0,0.21346880108
931,20140521_5.6Mw_30.45S_71.31W_36KM,2014-05-21 09:00:14.000000,5.6,-30.45,-71.31,interface,36.0,C04O,-29.9424,-71.2632,66.9912815095364,475,0,0.251911649814
932,20140521_5.6Mw_30.45S_71.31W_36KM,2014-05-21 09:00:34.000000,5.6,-30.45,-71.31,interface,36.0,C07O,-31.6336,-71.1675,136.79049632241558,654,0,0.0814563732486
933,20140522_4.1Mw_20.33S_69.89W_57KM,2014-05-22 14:20:60.000000,4.1,-20.33,-69.89,interface,57.0,T02A,-20.2525,-70.1181,62.37579115620016,269,0,0.21036723001
934,20140522_4.1Mw_20.33S_69.89W_57KM,2014-05-22 14:21:02.000000,4.1,-20.33,-69.89,interface,57.0,T10A,-19.9955,-69.7671,69.20804388240525,336,0,0.360733322515
935,20140522_4.1Mw_20.33S_69.89W_57KM,2014-05-22 14:21:07.000000,4.1,-20.33,-69.89,interface,57.0,T13A,-20.4963,-69.3375,83.17473230698423,378,0,0.0910987588025
936,20140522_4.1Mw_20.33S_69.89W_57KM,2014-05-22 14:20:60.000000,4.1,-20.33,-69.89,interface,57.0,T04A,-20.2391,-70.1333,63.20445085213307,1305,0,0.0872148591464
937,20140522_4.1Mw_20.33S_69.89W_57KM,2014-05-22 14:20:52.000000,4.1,-20.33,-69.89,interface,57.0,T07A,-20.2563,-69.786,58.60136846884461,326,0,0.342178050376
938,20140522_4.1Mw_20.33S_69.89W_57KM,2014-05-22 14:20:60.000000,4.1,-20.33,-69.89,interface,57.0,T01A,-20.2729,-70.1223,62.257443185773376,339,0,0.270703231183
939,20140525_4Mw_23.41S_68.88W_109KM,2014-05-25 14:55:16.000000,4.0,-23.41,-68.88,intraslab,109.0,A05F,-22.8914,-69.3207,131.24111509971874,1000,0,0.165180777923
940,20140527_4.7Mw_20.86S_70.47W_30KM,2014-05-27 03:34:03.000000,4.7,-20.86,-70.47,interface,30.0,T02A,-20.2525,-70.1181,82.32974904289435,269,0,0.179841765157
941,20140527_4.7Mw_20.86S_70.47W_30KM,2014-05-27 03:34:02.000000,4.7,-20.86,-70.47,interface,30.0,T01A,-20.2729,-70.1223,80.24951770500451,339,0,0.114602201336
942,20140527_4.7Mw_20.86S_70.47W_30KM,2014-05-27 03:34:06.000000,4.7,-20.86,-70.47,interface,30.0,A11F,-21.4249,-70.0568,81.56939884478622,600,0,0.0586786283459
943,20140528_4.3Mw_32.29S_71.56W_57KM,2014-05-28 10:26:32.000000,4.3,-32.29,-71.56,intraslab,57.0,V02A,-33.0231,-71.5178,99.35967707825176,596,0,0.0715606131659
944,20140528_4.5Mw_20.25S_70.75W_31KM,2014-05-28 18:13:17.000000,4.5,-20.25,-70.75,interface,31.0,T01A,-20.2729,-70.1223,72.60882016280492,339,0,0.10832801055
945,20140529_4.2Mw_33.74S_71.92W_43KM,2014-05-29 01:47:03.000000,4.2,-33.74,-71.92,interface,43.0,V16A,-33.5906,-71.6046,54.58311266397626,477,0,0.0945846357379
946,20140530_5.1Mw_33.54S_72.25W_39KM,2014-05-30 22:05:45.000000,5.1,-33.54,-72.25,intraslab,39.0,V02A,-33.0231,-71.5178,97.25554858358919,596,0,0.0923412434007
947,20140530_5.1Mw_33.54S_72.25W_39KM,2014-05-30 22:05:42.000000,5.1,-33.54,-72.25,intraslab,39.0,V09A,-33.0481,-71.6045,90.10525682566315,212,0,0.103533248686
948,20140530_5.1Mw_33.54S_72.25W_39KM,2014-05-30 22:05:37.000000,5.1,-33.54,-72.25,intraslab,39.0,V17A,-33.6055,-71.6143,71.1322638794617,281,0,0.0632499314463
949,20140530_5.2Mw_21.31S_69.98W_61KM,2014-05-30 11:40:58.000000,5.2,-21.31,-69.98,interface,61.0,T07A,-20.2563,-69.786,133.21488764349454,326,0,0.284863337503
950,20140530_5.2Mw_21.31S_69.98W_61KM,2014-05-30 11:41:03.000000,5.2,-21.31,-69.98,interface,61.0,T10A,-19.9955,-69.7671,159.40276824535295,336,0,0.256943766031
951,20140530_5.2Mw_21.31S_69.98W_61KM,2014-05-30 11:41:13.000000,5.2,-21.31,-69.98,interface,61.0,T03A,-20.2303,-70.1459,135.34047631919972,613,0,0.0802675625486
952,20140530_5.2Mw_21.31S_69.98W_61KM,2014-05-30 11:40:51.000000,5.2,-21.31,-69.98,interface,61.0,A07F,-21.628,-69.551,83.29253107539192,N/A,N/A,1.03139442587
953,20140530_5.2Mw_21.31S_69.98W_61KM,2014-05-30 11:41:42.000000,5.2,-21.31,-69.98,interface,61.0,T11A,-19.3123779,-69.4272919,236.60830985920984,346,0,0.072895644246
954,20140530_5.2Mw_21.31S_69.98W_61KM,2014-05-30 11:41:13.000000,5.2,-21.31,-69.98,interface,61.0,T08A,-20.2702,-70.0941,130.84249835306568,987,0,0.0791614867764
955,20140530_5.2Mw_21.31S_69.98W_61KM,2014-05-30 11:41:13.000000,5.2,-21.31,-69.98,interface,61.0,A06F,-22.344,-69.658,133.9320768544283,294.68,0,0.141746485034
956,20140530_5.2Mw_21.31S_69.98W_61KM,2014-05-30 11:40:48.000000,5.2,-21.31,-69.98,interface,61.0,A11F,-21.4249,-70.0568,62.824399038299504,600,0,0.872473204787
957,20140530_5.2Mw_21.31S_69.98W_61KM,2014-05-30 11:41:14.000000,5.2,-21.31,-69.98,interface,61.0,T05A,-20.2098,-70.1502,137.35375788721967,1020,0,0.0841148415366
958,20140530_5.2Mw_21.31S_69.98W_61KM,2014-05-30 11:41:23.000000,5.2,-21.31,-69.98,interface,61.0,T12A,-20.0706844,-69.2172089,169.87097415134403,732,0,0.169106629797
959,20140530_5.2Mw_21.31S_69.98W_61KM,2014-05-30 11:40:59.000000,5.2,-21.31,-69.98,interface,61.0,T13A,-20.4963,-69.3375,127.74216657352643,378,0,0.363740815746
960,20140530_5.3Mw_21.31S_69.97W_67KM,2014-05-30 11:41:38.000000,5.3,-21.31,-69.97,intraslab,67.0,TA02,-20.2705,-70.1311,134.2678678904098,489,0,0.224553287384
961,20140530_5.3Mw_21.31S_69.97W_67KM,2014-05-30 11:41:37.998393,5.3,-21.31,-69.97,intraslab,67.0,PB07,-21.7266,-69.88612,81.83263685418811,644,0,0.219623985737
962,20140530_5.3Mw_21.31S_69.97W_67KM,2014-05-30 11:41:37.998393,5.3,-21.31,-69.97,intraslab,67.0,PB03,-22.04764,-69.753265,108.03155664117585,711,0,0.200275579319
963,20140530_5.3Mw_21.31S_69.97W_67KM,2014-05-30 11:41:37.998392,5.3,-21.31,-69.97,intraslab,67.0,PB02,-21.31973,-69.89603,67.44754046905113,746,0,1.20346850459
964,20140530_5.3Mw_21.31S_69.97W_67KM,2014-05-30 11:41:37.998391,5.3,-21.31,-69.97,intraslab,67.0,PB01,-21.043228,-69.487399,88.76246462676936,603,0,0.56923852421
965,20140530_5.5Mw_21.3S_70W_59KM,2014-05-30 15:31:37.000000,5.5,-21.3,-70.0,interface,59.0,A11F,-21.4249,-70.0568,60.889260993383154,600,0,0.964071267685
966,20140530_5.5Mw_21.3S_70W_59KM,2014-05-30 15:32:02.000000,5.5,-21.3,-70.0,interface,59.0,T06A,-20.2142,-70.1379,134.69983611405635,1263,0,0.0732390937142
967,20140530_5.5Mw_21.3S_70W_59KM,2014-05-30 15:32:27.000000,5.5,-21.3,-70.0,interface,59.0,T11A,-19.3123779,-69.4272919,235.58595172605138,346,0,0.16268448712
968,20140530_5.5Mw_21.3S_70W_59KM,2014-05-30 15:32:27.000000,5.5,-21.3,-70.0,interface,59.0,PATCX,-20.82071,-70.15288,80.9100057556209,559,0,0.224070071783
969,20140530_5.5Mw_21.3S_70W_59KM,2014-05-30 15:31:47.000000,5.5,-21.3,-70.0,interface,59.0,T13A,-20.4963,-69.3375,127.13278640866707,378,0,0.357693226037
970,20140530_5.5Mw_21.3S_70W_59KM,2014-05-30 15:32:01.000000,5.5,-21.3,-70.0,interface,59.0,T08A,-20.2702,-70.0941,128.7669383870861,987,0,0.134994298915
971,20140530_5.5Mw_21.3S_70W_59KM,2014-05-30 15:32:02.000000,5.5,-21.3,-70.0,interface,59.0,T04A,-20.2391,-70.1333,132.17955797481122,1305,0,0.0860883224818
972,20140530_5.5Mw_21.3S_70W_59KM,2014-05-30 15:32:26.998393,5.5,-21.3,-70.0,interface,59.0,PB07,-21.7266,-69.88612,76.52334175285132,644,0,0.3388273522
973,20140530_5.5Mw_21.3S_70W_59KM,2014-05-30 15:32:02.000000,5.5,-21.3,-70.0,interface,59.0,T03A,-20.2303,-70.1459,133.213545251884,613,0,0.110953765192
974,20140530_5.5Mw_21.3S_70W_59KM,2014-05-30 15:32:26.998392,5.5,-21.3,-70.0,interface,59.0,PB02,-21.31973,-69.89603,60.01947355208963,746,0,1.0415389784
975,20140530_5.5Mw_21.3S_70W_59KM,2014-05-30 15:32:27.000000,5.5,-21.3,-70.0,interface,59.0,TA02,-20.2705,-70.1311,129.11688330877143,489,0,0.322381547698
976,20140530_5.5Mw_21.3S_70W_59KM,2014-05-30 15:32:19.000000,5.5,-21.3,-70.0,interface,59.0,A05F,-22.8914,-69.3207,198.56313424948289,1000,0,0.172559579203
977,20140530_5.5Mw_21.3S_70W_59KM,2014-05-30 15:32:26.998393,5.5,-21.3,-70.0,interface,59.0,PB03,-22.04764,-69.753265,104.8529063343872,711,0,0.225746098493
978,20140530_5.5Mw_21.3S_70W_59KM,2014-05-30 15:31:40.000000,5.5,-21.3,-70.0,interface,59.0,A07F,-21.628,-69.551,83.46024074441299,N/A,N/A,0.801088767744
979,20140530_5.5Mw_21.3S_70W_59KM,2014-05-30 15:32:26.998391,5.5,-21.3,-70.0,interface,59.0,PB01,-21.043228,-69.487399,84.43319409699262,603,0,0.607696472016
980,20140530_5.5Mw_21.3S_70W_59KM,2014-05-30 15:31:48.000000,5.5,-21.3,-70.0,interface,59.0,A06F,-22.344,-69.658,134.51613377604232,294.68,0,0.185216216582
981,20140530_5.5Mw_21.3S_70W_59KM,2014-05-30 15:31:47.000000,5.5,-21.3,-70.0,interface,59.0,T02A,-20.2525,-70.1181,130.74614501098094,269,0,0.431535344413
982,20140530_5.5Mw_21.3S_70W_59KM,2014-05-30 15:31:47.000000,5.5,-21.3,-70.0,interface,59.0,T07A,-20.2563,-69.786,131.6720053337394,326,0,0.353833711774
