,Earthquake Name,Start time record,Magnitude [Mw],Hypocenter latitude,Hypocenter longitude,Event type,Depth [km],Station name,Station latitude,Station longitude,Distance of rupture [km],Vs30 [m/s],Azimut [o],PGA (from 3 components) [g]
492,20140403_4.5Mw_20.57S_70.43W_28KM,2014-04-03 02:59:09.000000,4.5,-20.57,-70.43,interface,28.0,T03A,-20.2303,-70.1459,55.49431887220947,613,0,0.124426935302
493,20140403_4.6Mw_20.47S_70.57W_19KM,2014-04-03 05:33:49.000000,4.6,-20.47,-70.57,interface,19.0,T03A,-20.2303,-70.1459,55.01752066013168,613,0,0.143302885727
494,20140403_4.7Mw_20.62S_70.64W_30KM,2014-04-03 06:54:03.000000,4.7,-20.62,-70.64,interface,30.0,T07A,-20.2563,-69.786,102.30380213812697,326,0,0.107204591662
495,20140403_4.7Mw_20.66S_70.34W_32KM,2014-04-03 11:50:15.000000,4.7,-20.66,-70.34,interface,32.0,T10A,-19.9955,-69.7671,100.12275965423156,336,0,0.143736993411
496,20140403_4.8Mw_20.28S_70.47W_37KM,2014-04-03 09:08:12.000000,4.8,-20.28,-70.47,interface,37.0,T08A,-20.2702,-70.0941,53.972467937546064,987,0,0.137894735798
497,20140403_4.8Mw_20.28S_70.47W_37KM,2014-04-03 09:08:11.000000,4.8,-20.28,-70.47,interface,37.0,T03A,-20.2303,-70.1459,50.453061047379265,613,0,0.139726035566
498,20140403_4.8Mw_20.28S_70.47W_37KM,2014-04-03 09:08:20.000000,4.8,-20.28,-70.47,interface,37.0,T07A,-20.2563,-69.786,80.51155480161358,326,0,0.134835628358
499,20140403_4.8Mw_20.28S_70.47W_37KM,2014-04-03 09:08:11.000000,4.8,-20.28,-70.47,interface,37.0,T06A,-20.2142,-70.1379,51.24125910241465,1263,0,0.159964212998
500,20140403_4.8Mw_20.28S_70.47W_37KM,2014-04-03 09:08:11.000000,4.8,-20.28,-70.47,interface,37.0,T05A,-20.2098,-70.1502,50.46732150271671,1020,0,0.158341094055
501,20140403_4.8Mw_20.6S_70.93W_36KM,2014-04-03 14:33:44.000000,4.8,-20.6,-70.93,interface,36.0,T07A,-20.2563,-69.786,130.3844533132376,326,0,0.119166915963
502,20140403_4Mw_20.34S_69.92W_48KM,2014-04-03 11:44:52.000000,4.0,-20.34,-69.92,interface,48.0,T07A,-20.2563,-69.786,50.85638488837214,326,0,0.159567508933
503,20140403_5.1Mw_20.18S_70.63W_41KM,2014-04-03 23:37:12.000000,5.1,-20.18,-70.63,interface,41.0,T08A,-20.2702,-70.0941,70.12467608061472,987,0,0.0771356969372
504,20140403_5.1Mw_20.18S_70.63W_41KM,2014-04-03 23:37:19.000000,5.1,-20.18,-70.63,interface,41.0,T10A,-19.9955,-69.7671,101.22928296583551,336,0,0.134170430446
505,20140403_5.1Mw_20.18S_70.63W_41KM,2014-04-03 23:37:32.000000,5.1,-20.18,-70.63,interface,41.0,T13A,-20.4963,-69.3375,145.37691745459458,378,0,0.125129015052
506,20140403_5.1Mw_20.18S_70.63W_41KM,2014-04-03 23:37:19.000000,5.1,-20.18,-70.63,interface,41.0,T07A,-20.2563,-69.786,97.62682842637797,326,0,0.134517176558
507,20140403_5.1Mw_20.61S_70.56W_36KM,2014-04-03 03:10:55.000000,5.1,-20.61,-70.56,interface,36.0,T10A,-19.9955,-69.7671,113.09988582123532,336,0,0.132089476722
508,20140403_5.1Mw_20.61S_70.56W_36KM,2014-04-03 03:10:59.000000,5.1,-20.61,-70.56,interface,36.0,T03A,-20.2303,-70.1459,70.23361322709482,613,0,0.116736336427
509,20140403_5.1Mw_20.61S_70.56W_36KM,2014-04-03 03:11:06.000000,5.1,-20.61,-70.56,interface,36.0,T07A,-20.2563,-69.786,96.72745821061058,326,0,0.140103124201
510,20140403_5.2Mw_20.59S_70.77W_16KM,2014-04-03 09:22:47.000000,5.2,-20.59,-70.77,interface,16.0,T06A,-20.2142,-70.1379,79.62700314474688,1263,0,0.116400912645
511,20140403_5.2Mw_20.59S_70.77W_16KM,2014-04-03 09:22:46.000000,5.2,-20.59,-70.77,interface,16.0,T03A,-20.2303,-70.1459,78.01423818126177,613,0,0.112058641931
512,20140403_5.2Mw_20.59S_70.77W_16KM,2014-04-03 09:22:55.000000,5.2,-20.59,-70.77,interface,16.0,T07A,-20.2563,-69.786,110.31529202760122,326,0,0.146142358894
513,20140403_5.3Mw_20.74S_70.54W_12KM,2014-04-03 02:55:20.000000,5.3,-20.74,-70.54,interface,12.0,T08A,-20.2702,-70.0941,70.82239876846808,987,0,0.107550707472
514,20140403_5.3Mw_20.74S_70.54W_12KM,2014-04-03 02:55:29.000000,5.3,-20.74,-70.54,interface,12.0,T03A,-20.2303,-70.1459,70.86218234549841,613,0,0.177655683059
515,20140403_5.3Mw_20.74S_70.54W_12KM,2014-04-03 02:55:41.000000,5.3,-20.74,-70.54,interface,12.0,T10A,-19.9955,-69.7671,116.01485800228015,336,0,0.225814211562
516,20140403_5.5Mw_20.76S_70.42W_36KM,2014-04-03 05:51:44.000000,5.5,-20.76,-70.42,interface,36.0,TA01,-20.5656,-70.1807,48.759999035540055,1339,0,0.277139637364
517,20140403_5.5Mw_20.77S_70.44W_31KM,2014-04-03 05:51:05.000000,5.5,-20.77,-70.44,interface,31.0,T08A,-20.2702,-70.0941,72.9898586636903,987,0,0.12777455598
518,20140403_5.5Mw_20.77S_70.44W_31KM,2014-04-03 05:51:05.000000,5.5,-20.77,-70.44,interface,31.0,T03A,-20.2303,-70.1459,73.9973359636935,613,0,0.163503891756
519,20140403_5.5Mw_20.77S_70.44W_31KM,2014-04-03 05:51:21.000000,5.5,-20.77,-70.44,interface,31.0,T13A,-20.4963,-69.3375,122.86709886148586,378,0,0.133408116962
520,20140403_5.5Mw_20.77S_70.44W_31KM,2014-04-03 05:51:17.000000,5.5,-20.77,-70.44,interface,31.0,T10A,-19.9955,-69.7671,115.14482659627764,336,0,0.203559766469
521,20140403_5Mw_19.96S_70.91W_20KM,2014-04-03 03:45:30.000000,5.0,-19.96,-70.91,interface,20.0,T07A,-20.2563,-69.786,123.6528852647523,326,0,0.281657742113
522,20140403_5Mw_20.59S_70.67W_12KM,2014-04-03 04:17:30.000000,5.0,-20.59,-70.67,interface,12.0,T07A,-20.2563,-69.786,100.11422688248176,326,0,0.119189951736
523,20140403_6.3Mw_20.29S_70.61W_25KM,2014-04-03 01:57:47.000000,6.3,-20.29,-70.61,interface,25.0,T10A,-19.9955,-69.7671,87.75693527730412,336,0,0.758595916475
524,20140403_6.3Mw_20.29S_70.61W_25KM,2014-04-03 01:57:42.000000,6.3,-20.29,-70.61,interface,25.0,T03A,-20.2303,-70.1459,48.57639799517602,613,0,1.08607343833
525,20140403_6.3Mw_20.29S_70.61W_25KM,2014-04-03 01:58:02.000000,6.3,-20.29,-70.61,interface,25.0,T09A,-19.5957,-70.2108,82.43519622962701,1584,0,0.166128966041
526,20140403_6.3Mw_20.29S_70.61W_25KM,2014-04-03 01:57:41.000000,6.3,-20.29,-70.61,interface,25.0,T08A,-20.2702,-70.0941,52.57366960263524,987,0,0.756606771602
527,20140403_6.3Mw_20.29S_70.61W_25KM,2014-04-03 01:57:48.000000,6.3,-20.29,-70.61,interface,25.0,T05A,-20.2098,-70.1502,48.41332130005309,1020,0,0.673120900994
528,20140403_6.3Mw_20.29S_70.61W_25KM,2014-04-03 01:57:43.000000,6.3,-20.29,-70.61,interface,25.0,T06A,-20.2142,-70.1379,49.39676870091433,1263,0,0.742722556445
529,20140403_6.3Mw_20.29S_70.61W_25KM,2014-04-03 01:58:12.000000,6.3,-20.29,-70.61,interface,25.0,T12A,-20.0706844,-69.2172089,140.2922699713503,732,0,0.130595599124
530,20140403_6.3Mw_20.29S_70.61W_25KM,2014-04-03 01:57:56.000000,6.3,-20.29,-70.61,interface,25.0,T13A,-20.4963,-69.3375,127.11037554732695,378,0,0.582521645627
531,20140403_6.3Mw_20.29S_70.61W_25KM,2014-04-03 01:57:47.000000,6.3,-20.29,-70.61,interface,25.0,T07A,-20.2563,-69.786,81.2783084547362,326,0,0.897420504429
532,20140403_6.3Mw_20.8S_70.65W_38KM,2014-04-03 05:26:13.998392,6.3,-20.8,-70.65,interface,38.0,PB02,-21.31973,-69.89603,96.38663505332786,746,0,0.390103628465
533,20140403_6.3Mw_20.8S_70.67W_29KM,2014-04-03 05:25:36.000000,6.3,-20.8,-70.67,interface,29.0,T10A,-19.9955,-69.7671,122.61090774171517,336,0,0.491409843029
534,20140403_6.3Mw_20.8S_70.67W_29KM,2014-04-03 05:25:38.000000,6.3,-20.8,-70.67,interface,29.0,T03A,-20.2303,-70.1459,79.34861380102535,613,0,0.287181827479
535,20140403_6.3Mw_20.8S_70.67W_29KM,2014-04-03 05:25:43.000000,6.3,-20.8,-70.67,interface,29.0,T06A,-20.2142,-70.1379,81.08951259146747,1263,0,0.114391643944
536,20140403_6.3Mw_20.8S_70.67W_29KM,2014-04-03 05:25:29.000000,6.3,-20.8,-70.67,interface,29.0,T08A,-20.2702,-70.0941,79.61543334566755,987,0,0.184035508602
537,20140403_6.3Mw_20.8S_70.67W_29KM,2014-04-03 05:25:39.000000,6.3,-20.8,-70.67,interface,29.0,T13A,-20.4963,-69.3375,136.31672940716257,378,0,0.210385867646
538,20140403_6.3Mw_20.8S_70.67W_29KM,2014-04-03 05:25:40.000000,6.3,-20.8,-70.67,interface,29.0,T05A,-20.2098,-70.1502,80.71828701678614,1020,0,0.204627695341
539,20140403_6.3Mw_20.8S_70.67W_29KM,2014-04-03 05:25:47.000000,6.3,-20.8,-70.67,interface,29.0,T07A,-20.2563,-69.786,103.87185902897053,326,0,0.214939032878
540,20140403_6.3Mw_20.8S_70.67W_29KM,2014-04-03 05:26:03.000000,6.3,-20.8,-70.67,interface,29.0,T12A,-20.0706844,-69.2172089,163.60113203717765,732,0,0.0852472502051
541,20140403_7.6Mw_20.52S_70.44W_27KM,2014-04-03 02:43:14.998393,7.6,-20.52,-70.44,interface,27.0,PB03,-22.04764,-69.753265,142.64564520535987,711,0,0.354276968014
542,20140403_7.6Mw_20.52S_70.44W_27KM,2014-04-03 02:43:14.998392,7.6,-20.52,-70.44,interface,27.0,PB01,-21.043228,-69.487399,78.62087614818428,603,0,1.64636861088
543,20140403_7.6Mw_20.52S_70.44W_27KM,2014-04-03 02:43:14.998392,7.6,-20.52,-70.44,interface,27.0,PB04,-22.333499,-70.14939,167.20775570737152,563,0,0.319552914447
544,20140403_7.6Mw_20.52S_70.44W_27KM,2014-04-03 02:43:14.998392,7.6,-20.52,-70.44,interface,27.0,PB02,-21.31973,-69.89603,67.21801351132525,746,0,1.34604595202
545,20140403_7.6Mw_20.52S_70.44W_27KM,2014-04-03 02:42:34.000000,7.6,-20.52,-70.44,interface,27.0,T10A,-19.9955,-69.7671,56.761822078557955,336,0,6.24707198185
546,20140403_7.6Mw_20.52S_70.44W_27KM,2014-04-03 02:43:15.000000,7.6,-20.52,-70.44,interface,27.0,HMBCX,-20.2782,-69.8879,44.48082659531605,743,0,2.438222894
547,20140403_7.6Mw_20.52S_70.44W_27KM,2014-04-03 02:42:43.000000,7.6,-20.52,-70.44,interface,27.0,T12A,-20.0706844,-69.2172089,104.93573795750028,732,0,1.49236380674
548,20140403_7.6Mw_20.52S_70.44W_27KM,2014-04-03 02:43:15.000000,7.6,-20.52,-70.44,interface,27.0,MNMCX,-19.13108,-69.59553,133.0659281586489,693,0,1.76666716111
549,20140403_7.6Mw_20.52S_70.44W_27KM,2014-04-03 02:43:14.998393,7.6,-20.52,-70.44,interface,27.0,PB08,-20.141083,-69.153496,110.74915852691595,742,0,0.505017778302
550,20140403_7.6Mw_20.52S_70.44W_27KM,2014-04-03 02:43:15.000000,7.6,-20.52,-70.44,interface,27.0,PB09,-21.79638,-69.24192,144.04756543002895,649,0,0.533210892433
551,20140403_7.6Mw_20.52S_70.44W_27KM,2014-04-03 02:42:29.000000,7.6,-20.52,-70.44,interface,27.0,T03A,-20.2303,-70.1459,33.93737278586347,613,0,2.89013524611
552,20140403_7.6Mw_20.52S_70.44W_27KM,2014-04-03 02:43:14.999998,7.6,-20.52,-70.44,interface,27.0,PB11,-19.761,-69.6558,77.10081149516674,1044,0,2.09557035536
553,20140403_7.6Mw_20.52S_70.44W_27KM,2014-04-03 02:43:14.998392,7.6,-20.52,-70.44,interface,27.0,PB15,-23.208325,-69.47092,272.19704672001507,532,0,0.293027040471
554,20140403_7.6Mw_20.52S_70.44W_27KM,2014-04-03 02:43:15.000000,7.6,-20.52,-70.44,interface,27.0,PB12,-18.614058,-70.328085,174.54160179904486,599,0,0.522184692278
555,20140403_7.6Mw_20.52S_70.44W_27KM,2014-04-03 02:43:14.998392,7.6,-20.52,-70.44,interface,27.0,PB07,-21.7266,-69.88612,106.23556534727484,644,0,0.421946244656
556,20140403_7.6Mw_20.52S_70.44W_27KM,2014-04-03 02:43:15.000000,7.6,-20.52,-70.44,interface,27.0,PSGCX,-19.5972,-70.1231,71.4775413908431,1639,0,1.11939289938
557,20140403_7.6Mw_20.52S_70.44W_27KM,2014-04-03 02:42:48.000000,7.6,-20.52,-70.44,interface,27.0,T09A,-19.5957,-70.2108,70.87266232272155,1584,0,1.92221080728
558,20140403_7.6Mw_20.52S_70.44W_27KM,2014-04-03 02:43:14.998300,7.6,-20.52,-70.44,interface,27.0,GO01,-19.6686,-69.1942,119.96728514496213,973,0,2.49094273168
559,20140403_7.6Mw_20.52S_70.44W_27KM,2014-04-03 02:42:29.000000,7.6,-20.52,-70.44,interface,27.0,T06A,-20.2142,-70.1379,34.14626704225533,1263,0,2.0796217978
560,20140403_7.6Mw_20.52S_70.44W_27KM,2014-04-03 02:43:15.000000,7.6,-20.52,-70.44,interface,27.0,TA01,-20.5656,-70.1807,32.78401799456661,1339,0,1.34286890007
561,20140403_7.6Mw_20.52S_70.44W_27KM,2014-04-03 02:42:36.000000,7.6,-20.52,-70.44,interface,27.0,T13A,-20.4963,-69.3375,91.23265281698794,378,0,3.76525267444
562,20140403_7.6Mw_20.52S_70.44W_27KM,2014-04-03 02:42:29.000000,7.6,-20.52,-70.44,interface,27.0,T05A,-20.2098,-70.1502,33.85052923659014,1020,0,1.82634222971
563,20140403_7.6Mw_20.52S_70.44W_27KM,2014-04-03 02:43:15.000000,7.6,-20.52,-70.44,interface,27.0,AP01,-18.3708,-70.3419,201.11277447551225,355,0,0.729666584936
564,20140403_7.6Mw_20.52S_70.44W_27KM,2014-04-03 02:42:28.000000,7.6,-20.52,-70.44,interface,27.0,T08A,-20.2702,-70.0941,35.17147619698651,987,0,4.46138789816
565,20140403_7.6Mw_20.52S_70.44W_27KM,2014-04-03 02:42:32.000000,7.6,-20.52,-70.44,interface,27.0,T07A,-20.2563,-69.786,51.8894034572624,326,0,5.23913847523
566,20140404_4.6Mw_20.62S_70.7W_20KM,2014-04-04 09:53:02.000000,4.6,-20.62,-70.7,interface,20.0,T10A,-19.9955,-69.7671,121.17316213729643,336,0,0.06640876326
567,20140404_4Mw_20.37S_69.86W_50KM,2014-04-04 14:19:40.000000,4.0,-20.37,-69.86,interface,50.0,T07A,-20.2563,-69.786,52.14414749505183,326,0,0.462198644424
568,20140404_4Mw_20.37S_69.86W_50KM,2014-04-04 14:19:43.000000,4.0,-20.37,-69.86,interface,50.0,T10A,-19.9955,-69.7671,65.71140039730258,336,0,0.148611595075
569,20140404_5.2Mw_22.16S_70.26W_70KM,2014-04-04 04:34:27.998393,5.2,-22.16,-70.26,intraslab,70.0,PB04,-22.333499,-70.14939,73.49942061739638,563,0,0.35041161647
570,20140404_5.4Mw_31.48S_70.64W_106KM,2014-04-04 09:52:07.000000,5.4,-31.48,-70.64,intraslab,106.0,CO03,-30.8389,-70.6891,127.70529248224912,704,0,0.634595041092
571,20140404_5.4Mw_31.48S_70.64W_106KM,2014-04-04 09:52:07.000000,5.4,-31.48,-70.64,intraslab,106.0,CO02,-31.2037,-71.0003,115.52522509878403,402,0,0.496959278834
572,20140404_5.4Mw_31.48S_70.64W_106KM,2014-04-04 09:52:07.000000,5.4,-31.48,-70.64,intraslab,106.0,CO04,-32.0433,-70.9747,127.04460761959396,681,0,0.319066427036
573,20140404_6.1Mw_20.62S_70.57W_40KM,2014-04-04 01:37:50.998392,6.1,-20.62,-70.57,interface,40.0,PB02,-21.31973,-69.89603,105.97108867330563,746,0,0.339349186353
574,20140404_6.1Mw_20.62S_70.61W_32KM,2014-04-04 01:37:12.000000,6.1,-20.62,-70.61,interface,32.0,T10A,-19.9955,-69.7671,108.9642110309529,336,0,0.338135197205
575,20140404_6.1Mw_20.62S_70.61W_32KM,2014-04-04 01:37:14.000000,6.1,-20.62,-70.61,interface,32.0,T03A,-20.2303,-70.1459,66.6200606284214,613,0,0.215864852865
576,20140404_6.1Mw_20.62S_70.61W_32KM,2014-04-04 01:37:14.000000,6.1,-20.62,-70.61,interface,32.0,T06A,-20.2142,-70.1379,68.18005342167555,1263,0,0.147379104383
577,20140404_6.1Mw_20.62S_70.61W_32KM,2014-04-04 01:37:14.000000,6.1,-20.62,-70.61,interface,32.0,T08A,-20.2702,-70.0941,67.60691412807803,987,0,0.154576373572
578,20140404_6.1Mw_20.62S_70.61W_32KM,2014-04-04 01:37:16.000000,6.1,-20.62,-70.61,interface,32.0,T13A,-20.4963,-69.3375,129.6495774797134,378,0,0.252205753058
579,20140404_6.1Mw_20.62S_70.61W_32KM,2014-04-04 01:37:16.000000,6.1,-20.62,-70.61,interface,32.0,T05A,-20.2098,-70.1502,67.7198823364033,1020,0,0.171570346179
580,20140404_6.1Mw_20.62S_70.61W_32KM,2014-04-04 01:37:22.000000,6.1,-20.62,-70.61,interface,32.0,T07A,-20.2563,-69.786,92.85727440415407,326,0,0.39398129999
581,20140404_6.1Mw_20.62S_70.61W_32KM,2014-04-04 01:37:42.000000,6.1,-20.62,-70.61,interface,32.0,T12A,-20.0706844,-69.2172089,152.5457757065828,732,0,0.0691228730492
582,20140405_4.1Mw_20.27S_70.22W_40KM,2014-04-05 07:00:40.000000,4.1,-20.27,-70.22,interface,40.0,T08A,-20.2702,-70.0941,42.11011839649044,987,0,0.945155564263
583,20140405_4.1Mw_20.27S_70.22W_40KM,2014-04-05 07:00:40.000000,4.1,-20.27,-70.22,interface,40.0,T03A,-20.2303,-70.1459,40.98032728404553,613,0,0.1413248532
584,20140405_4.1Mw_20.27S_70.22W_40KM,2014-04-05 07:00:47.000000,4.1,-20.27,-70.22,interface,40.0,T10A,-19.9955,-69.7671,69.06745476736921,336,0,0.125306596908
585,20140405_4.1Mw_20.27S_70.22W_40KM,2014-04-05 07:00:45.000000,4.1,-20.27,-70.22,interface,40.0,T07A,-20.2563,-69.786,60.483063210395684,326,0,0.150662640623
586,20140405_4.3Mw_20.28S_70.03W_52KM,2014-04-05 08:15:46.000000,4.3,-20.28,-70.03,interface,52.0,T08A,-20.2702,-70.0941,52.43972048220295,987,0,0.158786784073
587,20140405_4.3Mw_20.28S_70.03W_52KM,2014-04-05 08:15:49.000000,4.3,-20.28,-70.03,interface,52.0,T10A,-19.9955,-69.7671,66.75049148085404,336,0,0.243044694312
588,20140405_4.3Mw_20.28S_70.03W_52KM,2014-04-05 08:15:47.000000,4.3,-20.28,-70.03,interface,52.0,T07A,-20.2563,-69.786,57.97257796894057,326,0,0.322774437085
589,20140405_4.5Mw_19.87S_70.22W_45KM,2014-04-05 20:19:40.000000,4.5,-19.87,-70.22,interface,45.0,T10A,-19.9955,-69.7671,66.82548308962902,336,0,0.423527320686
590,20140405_4.5Mw_19.87S_70.22W_45KM,2014-04-05 20:19:45.000000,4.5,-19.87,-70.22,interface,45.0,T03A,-20.2303,-70.1459,60.60736352875633,613,0,0.191409752847
591,20140405_4.5Mw_19.87S_70.22W_45KM,2014-04-05 20:19:43.000000,4.5,-19.87,-70.22,interface,45.0,T09A,-19.5957,-70.2108,54.27636978938701,1584,0,0.311375537941
592,20140405_4.5Mw_19.87S_70.22W_45KM,2014-04-05 20:19:46.000000,4.5,-19.87,-70.22,interface,45.0,T08A,-20.2702,-70.0941,64.49499807481907,987,0,0.116535694716
593,20140405_4.5Mw_19.87S_70.22W_45KM,2014-04-05 20:19:50.000000,4.5,-19.87,-70.22,interface,45.0,T07A,-20.2563,-69.786,76.88999307271777,326,0,0.366058113372
594,20140405_4.5Mw_19.87S_70.22W_45KM,2014-04-05 20:19:45.000000,4.5,-19.87,-70.22,interface,45.0,T05A,-20.2098,-70.1502,59.12169025528577,1020,0,0.195444291025
595,20140405_4.6Mw_20.6S_70.67W_21KM,2014-04-05 05:28:34.000000,4.6,-20.6,-70.67,interface,21.0,T10A,-19.9955,-69.7671,117.57022206870052,336,0,0.074413108232
596,20140405_4.7Mw_20.71S_70.69W_30KM,2014-04-05 04:04:41.000000,4.7,-20.71,-70.69,interface,30.0,T10A,-19.9955,-69.7671,128.27018952284382,336,0,0.0565245087877
597,20140405_4.7Mw_20.71S_70.69W_30KM,2014-04-05 04:04:28.000000,4.7,-20.71,-70.69,interface,30.0,T03A,-20.2303,-70.1459,83.33846444901619,613,0,0.118894441138
598,20140405_4.8Mw_20.17S_70.52W_36KM,2014-04-05 00:33:39.000000,4.8,-20.17,-70.52,interface,36.0,T11A,-19.3123779,-69.4272919,153.10874078957573,346,0,0.138299594526
599,20140405_4.8Mw_20.17S_70.52W_36KM,2014-04-05 00:33:12.000000,4.8,-20.17,-70.52,interface,36.0,T10A,-19.9955,-69.7671,88.73643175923948,336,0,0.144205092445
600,20140405_4Mw_20.35S_69.95W_43KM,2014-04-05 00:11:03.000000,4.0,-20.35,-69.95,interface,43.0,T08A,-20.2702,-70.0941,46.40717244274855,987,0,0.157423933222
601,20140405_4Mw_20.35S_69.95W_43KM,2014-04-05 00:11:07.000000,4.0,-20.35,-69.95,interface,43.0,T10A,-19.9955,-69.7671,61.31465600434979,336,0,0.296299102349
602,20140405_4Mw_20.35S_69.95W_43KM,2014-04-05 00:11:04.000000,4.0,-20.35,-69.95,interface,43.0,T07A,-20.2563,-69.786,47.441549002278144,326,0,0.373503377093
603,20140405_5.4Mw_20.16S_70.54W_43KM,2014-04-05 05:44:15.000000,5.4,-20.16,-70.54,interface,43.0,T08A,-20.2702,-70.0941,64.57310493839077,987,0,0.0635234914187
604,20140405_5.4Mw_20.16S_70.54W_43KM,2014-04-05 05:44:11.000000,5.4,-20.16,-70.54,interface,43.0,T10A,-19.9955,-69.7671,93.37973332566031,336,0,0.278468375303
605,20140405_5.4Mw_20.16S_70.54W_43KM,2014-04-05 05:44:21.000000,5.4,-20.16,-70.54,interface,43.0,T07A,-20.2563,-69.786,90.39545639583645,326,0,0.161885001479
606,20140405_5.4Mw_20.16S_70.54W_43KM,2014-04-05 05:44:18.000000,5.4,-20.16,-70.54,interface,43.0,T09A,-19.5957,-70.2108,83.273383615713,1584,0,0.0745855099052
607,20140405_5.4Mw_20.16S_70.54W_43KM,2014-04-05 05:44:39.000000,5.4,-20.16,-70.54,interface,43.0,T11A,-19.3123779,-69.4272919,155.79403398890193,346,0,0.117991464184
608,20140405_5.7Mw_32.67S_71.3W_42KM,2014-04-05 02:22:39.000000,5.7,-32.67,-71.3,interface,42.0,VA03,-32.7637,-70.5508,82.48251406303648,937,0,0.353572482069
609,20140405_5.7Mw_32.67S_71.3W_42KM,2014-04-05 02:22:38.999538,5.7,-32.67,-71.3,interface,42.0,ROC1,-32.9759,-71.0156,60.19013996148032,1951,0,0.217764105285
610,20140405_5.7Mw_32.67S_71.3W_42KM,2014-04-05 02:22:39.000000,5.7,-32.67,-71.3,interface,42.0,MT02,-33.2591,-71.1377,79.12263346170965,923,0,0.282648241913
611,20140405_5.7Mw_32.67S_71.3W_42KM,2014-04-05 02:22:39.000000,5.7,-32.67,-71.3,interface,42.0,ME03,-33.4936,-70.5102,124.7226491919263,537,0,0.317076921834
612,20140406_4.5Mw_19.77S_70.5W_40KM,2014-04-06 20:55:10.000000,4.5,-19.77,-70.5,interface,40.0,T09A,-19.5957,-70.2108,53.75216520297984,1584,0,0.537866474001
613,20140406_4.5Mw_19.77S_70.5W_40KM,2014-04-06 20:55:21.000000,4.5,-19.77,-70.5,interface,40.0,T10A,-19.9955,-69.7671,90.07199499270415,336,0,0.0618206452495
614,20140406_4.5Mw_19.77S_70.5W_40KM,2014-04-06 20:55:32.000000,4.5,-19.77,-70.5,interface,40.0,T11A,-19.3123779,-69.4272919,129.81124117699844,346,0,0.100456975325
